"Name","Type","Phone","Lat","Lon","Address"
"Trung Tam Y Te Du Phong - Phong Kham Tiem Phong","hospital","0303040802","10.764268","106.707021","TP.HCM"
"Columbia Asia Saigon","hospital","0397401880","10.7795758","106.6965213","Alexandre de Rhodes, TP.HCM"
"Benh Vien Mat Sai Gon","hospital","0992546039","10.7713711","106.6909391","Le Thi Rieng, TP.HCM"
"Tru So Cong An - Phuong Nguyen Cu Trinh","police","113","10.7630201","106.6873049","TP.HCM"
"Cong An Phuong Pham Ngu Lao","police","113","10.7673361","106.6936739","TP.HCM"
"Benh vien Quan 1 (co so 2)","hospital","115","10.7651115","106.6932273","Tran Hung Ðao, TP.HCM"
"Wedo Skin Clinic Quan 1","hospital","840898898875","10.7888402","106.6974043","Tran Doan Khanh, Quan 1, Ho Chi Minh City"
"Benh vien Nhi dong 2","hospital","842838295723","10.7814535","106.7028174","Ly Tu Trong, Ho Chi Minh City"
"Benh vien Da khoa Sai Gon","hospital","115","10.7720169","106.6994936","Le Loi, TP.HCM"
"Benh vien Da khoa Khanh Hoi","hospital","115","10.7652457","106.7021855","TP.HCM"
"Vien Pasteur Thanh pho Ho Chi Minh","hospital","115","10.786266","106.688855","Duong Pasteur, TP.HCM"
"Benh vien Mat Thanh pho Ho Chi Minh","hospital","115","10.7787242","106.6849361","TP.HCM"
"Benh vien Da lieu","hospital","115","10.7767949","106.6868606","TP.HCM"
"Benh vien Da khoa Tan Dinh","hospital","115","10.7902069","106.6896592","Hai Ba Trung, Tan Dinh, TP.HCM"
"Benh vien Tu Du","hospital","115","10.7688942","106.6860103","Cong Quynh, TP.HCM"
"Benh vien Binh Dan","hospital","0972917842","10.7741311","106.6813679","TP.HCM"
"Tru so Uy ban nhan dan Thanh pho Ho Chi Minh","townhall","842838296052","10.7765959","106.7009554","Le Thanh Ton, Quan 1, Thanh pho Ho Chi Minh"
"Benh vien An Sinh","hospital","02838457777","10.7913163","106.6785309","Tran Huy Lieu, Phu Nhuan, TP.HCM"
"Benh vien Rang Ham Mat Thanh pho Ho Chi Minh","hospital","02838360191","10.763482","106.691909","Duong Tran Hung Ðao, TP.HCM"
"Cong An Quan 1","police","113","10.7669177","106.6969079","TP.HCM"
"Canh sat PCCC Quan 3","fire_station","114","10.7896282","106.6854115","TP.HCM"
"Benh Vien Mat Viet-Nga","hospital","115","10.7769291","106.6811338","Duong 3 Thang 2, Quan 10, Thanh pho Ho Chi Minh"
"UBND phuong 13","townhall","112","10.7642696","106.7073126","TP.HCM"
"Cong an Quan 4","police","113","10.7668231","106.7055374","Doan Nhu Hai, Quan 4, Thanh pho Ho Chi Minh"
"Canh Sat trat tu Giao thong Quan 4","police","113","10.7643821","106.7046247","TP.HCM"
"Doi tuan tra kiem soat giao thong so 5","police","113","10.7714231","106.7000808","Ham Nghi, TP.HCM"
"UBND Phuong Ben Nghe","townhall","112","10.782606","106.7046164","TP.HCM"
"Doi canh sat Giao thong Quan 1","police","113","10.7667554","106.6965067","Nguyen Thai Hoc, TP.HCM"
"Phong Canh sat Giao thong duong thuy","police","113","10.7681706","106.6965838","Le Thi Hong Gam, TP.HCM"
"UBND phuong 12","townhall","112","10.7653929","106.7031308","Le Quoc Hung, TP.HCM"
"Phu My Hung Security","police","0312270072","10.7321782","106.7065443","TP.HCM"
"Nha Thuoc Thai Thanh","hospital","0830933273","10.7255507","106.7339143","Huynh Tan Phat, TP.HCM"
"BENH VIEN MAT","hospital","02839325374","10.7441887","106.7275329","Hem 458 Huynh Tan Phat, TP.HCM"
"Phong Kham Dr Vein","hospital","115","10.7278961","106.7080164","Noi Khu My Toan 2, Quan 7, Ho Chi Minh"
"Cong an phuong Tan Phong","police","842837760239","10.7295721","106.7103016","Dang Dai Do, TP.HCM"
"Phong kham bac si Ho Cao Vu","hospital","115","10.7278806","106.708011","Duong Noi Khu My Toan 2, Quan 7, Ho Chi Minh"
"Benh vien Phap Viet","hospital","842854113333","10.7323638","106.7179388","Nguyen Luong Bang, Quan 7, Thanh pho Ho Chi Minh"
"Benh vien Tim Tam Duc","hospital","115","10.7334899","106.7177983","TP.HCM"
"Benh vien Da khoa Nguyen Thi Thap","hospital","115","10.737275","106.7240834","Nguyen Thi Thap, TP.HCM"
"Cong an phuong Tan Quy","police","113","10.7450724","106.70594","TP.HCM"
"Cong an Quan 7","police","113","10.7330976","106.7260075","TP.HCM"
"Benh vien Phuong Nam","hospital","84911693399","10.7344138","106.7177492","Nguyen Luong Bang, Quan 7, Thanh pho Ho Chi Minh"
"Cong An Phuong 26","police","02838996813","10.813252","106.7059206","Duong so 14, Binh Thanh, Ho Chi Minh City"
"Cong An Phuong 24","police","02838993604","10.8031746","106.7096544","Bach Dang, Quan Binh Thanh, Ho Chi Minh City"
"UBND Phuong 24","police","0301680951","10.8031665","106.7098886","Bach Dang, Quan Binh Thanh, Ho Chi Minh City"
"Benh vien Nhan dan Gia Dinh","hospital","115","10.8039083","106.6941137","Phan Dang Luu, Binh Thanh, TP.HCM"
"Benh Vien Quoc Te Columbia Asia","hospital","115","10.8032232","106.6945681","Duong No Trang Long, Binh Thanh, TP.HCM"
"Uy ban nhan dan phuong Binh Quoi","townhall","112","10.8155252","106.720531","Thanh Da, TP.HCM"
"Cong An Phuong 19","police","113","10.7919999","106.7090683","Huynh Tinh Cua, Binh Thanh, TP.HCM"
"Benh vien Ung buou","hospital","115","10.8049698","106.6942613","Duong No Trang Long, Binh Thanh, TP.HCM"
"Uy ban nhan dan phuong Tan Dinh","townhall","112","10.7890425","106.6997391","Nguyen Dinh Chieu, TP.HCM"
"Cong An Phuong 25 Quan Binh Thanh","police","113","10.7987615","106.7208458","TP.HCM"
"Uy ban nhan dan phuong Thanh My Tay","townhall","112","10.7905572","106.7128776","Hem 85 Pham Viet Chanh, TP.HCM"
"Benh vien Da khoa Binh Thanh","hospital","115","10.7980558","106.6967399","Duong Le Van Duyet, TP.HCM"
"Doi Dang ky, Quan ly phuong tien giao thong co gioi duong bo","police","113","10.8145378","106.6988061","No Trang Long, TP.HCM"
"Cong An Thanh pho Thu Duc","police","02838972025","10.8488376","106.7686789","Nguyen Khuyen, TP.HCM"
"Cong An Phuong Linh Chieu","police","0270029847","10.8507239","106.7602604","Vo Van Ngan, TP.HCM"
"Cong An Phuong Binh Tho","police","02838972051","10.8499431","106.767018","Dan Chu, TP.HCM"
"Phong kham da khoa YHCT Thien Phuc Duong","hospital","115","10.8558331","106.7665022","Hoang Dieu 2, Quan Thu Duc, Phuong Linh Chieu"
"Uy ban nhan dan phuong Linh Xuan","townhall","112","10.8642934","106.7619545","Kha Van Can, TP.HCM"
"Benh vien Da khoa Thu Duc","hospital","115","10.8643971","106.7455723","Duong Phu Chau, TP.HCM"
"UBND phuong Tam Phu","townhall","112","10.8626402","106.7437487","TP.HCM"
"Benh vien Phu san Mekong","hospital","0750703250","10.7998479","106.6675233","TP.HCM"
"Benh Vien Sai Gon ITO","hospital","0992347508","10.7950017","106.6672345","TP.HCM"
"Don Cong an Cua khau Tan Son Nhat","police","0838440050","10.8156814","106.6677971","TP.HCM"
"Benh vien Thong Nhat","hospital","842838690277","10.7910792","106.6535424","Ly Thuong Kiet, Ho Chi Minh City"
"Benh vien 1A","hospital","115","10.7889136","106.6537197","Duong Ly Thuong Kiet, TP.HCM"
"Vien Y Duoc hoc Dan toc","hospital","115","10.797087","106.6712263","Nguyen Van Troi, Phu Nhuan, TP.HCM"
"UBND phuong 2 - Q. Tan Binh","townhall","112","10.7988984","106.6645674","Nguyen Trong Tuyen, Tan Binh, Thanh pho Ho Chi Minh"
"Benh vien Da khoa Tan Binh","hospital","115","10.7944253","106.6554163","TP.HCM"
"Uy ban Nhan dan P.5, Q.Tan Binh","townhall","112","10.7905333","106.6619647","Tan Binh, TPHCM"
"Benh vien Da khoa Phu Nhuan","hospital","115","10.7982597","106.6718231","Nguyen Trong Tuyen, Phu Nhuan, TP.HCM"
"Uy ban nhan dan phuong Tan Son Hoa","townhall","112","10.7944764","106.6674689","Le Van Sy, TP.HCM"
"Uy ban nhan dan phuong Bay Hien","townhall","112","10.7905053","106.6510327","Hem 1129 Lac Long Quan, TP.HCM"
"Uy ban nhan dan phuong Tan Son Nhat","townhall","112","10.794952","106.6593911","Hem 25 Hoang Viet, TP.HCM"
"Cong an quan Tan Binh","police","113","10.7978374","106.6574559","TP.HCM"
"Benh vien Da khoa Tam Anh","hospital","115","10.8024122","106.6662942","TP.HCM"
"Phong Kham Da Khoa Huu Nghi","hospital","115","10.848021","106.6783081","Duong so 5, TP.HCM"
"Uy ban nhan dan phuong An Hoi Dong","townhall","0319049835","10.8419572","106.6650631","Thong Nhat, TP.HCM"
"Benh vien Da khoa Go Vap","hospital","02835891799","10.8345835","106.661529","Duong Quang Trung, TP.HCM"
"Uy ban nhan dan phuong Thong Tay Hoi","townhall","112","10.8422202","106.6546259","Nguyen Van Khoi, TP.HCM"
"188 Beauty Spa quan 12 | Vien tham my hang dau tpHCM","hospital","0985554393","10.8763131","106.6406947","Duong Thi Muoi, quan 12, thanh pho Ho Chi Minh"
"UBND Quan 12","townhall","0948660282","10.8632353","106.6540379","Le Thi Rieng, Quan 12, Phuong Thoi An"
"Uy ban nhan dan phuong Thoi An","townhall","0301457590","10.875511","106.6495633","Le Van Khuong, TP.HCM"
"Benh vien Da khoa Trung My Tay","hospital","115","10.8608483","106.6307188","Duong Thi Muoi, Trung My Tay, TP.HCM"
"Cong an Quan 12","police","113","10.8672726","106.6403155","TP.HCM"
"Uy ban nhan dan phuong Tan Thoi Hiep","townhall","112","10.867204","106.6419349","Truong Thi Hoa, TP.HCM"
"Cong an phuong Tan Thoi Hiep","police","113","10.8673721","106.6417931","TP.HCM"
"Benh vien Da khoa Binh Tan","hospital","0966591010","10.7644533","106.6032245","Huong lo 2, TP.HCM"
"Uy ban nhan dan phuong Binh Tri Dong","townhall","0309500833","10.7646427","106.6045452","Ma Lo, TP.HCM"
"Uy ban nhan dan phuong Tan Tao","townhall","02837541385","10.7564951","106.5868885","Tinh lo 10, TP.HCM"
"Cong An Quan 7","police","02837851461","10.7108925","106.736462","TP.HCM"
"Nha ho sinh A","hospital","0836633399","21.024432","105.8548261","Ngo Quyen, Hoan Kiem, Ha Noi"
"Benh vien Mat Ky thuat cao Ha Noi","hospital","84984122153","21.0168006","105.849466","Pho Tran Nhan Tong, Hai Ba Trung, Ha Noi"
"Diem khai bao luu tru","police","0380289977","21.0150388","105.8493667","Pho Tue Tinh, Hai Ba Trung, Ha Noi"
"Benh vien Mat Viet Nhat","hospital","842439748307","21.0145775","105.8502987","Pho Trieu Viet Vuong, Hai Ba Trung, Ha Noi"
"Tram Y te phuong Hang Ma","hospital","115","21.039512","105.8472708","Pho Hang Cot, Quan Hoan Kiem, Ha Noi"
"Dang uy-HDND-UBND phuong Hang Buom","townhall","112","21.0356425","105.8532321","Ha Noi"
"Benh vien Trung uong Quan doi 108","hospital","115","21.0163854","105.8606157","Pho Tran Hung Dao, Hai Ba Trung, Ha Noi"
"Cong an phuong Hang Ma","police","113","21.0397596","105.8473363","Quan Hoan Kiem, Ha Noi"
"Dang uy-HDND-UBND phuong Hang Ma","townhall","112","21.037735","105.8481618","Ha Noi"
"Cong an phuong Nguyen Trung Truc","police","113","21.0408422","105.8473228","Ha Noi"
"Dang uy - UBND phuong Nguyen Trung Truc","townhall","112","21.0408025","105.8473343","Pho Hang Than, Ha Noi"
"Benh Vien Da Khoa Hong Ngoc","hospital","115","21.0424358","105.8443367","Ha Noi"
"Dang uy - HDND phuong Ba Dinh","townhall","112","21.0404161","105.8445497","Pho Phan Dinh Phung, Ha Noi"
"Cong an phuong Hang Bac","police","113","21.0341101","105.851928","Ha Noi"
"Trung tam Y te quan Hoan Kiem","hospital","115","21.0350369","105.8523965","Pho Luong Ngoc Quyet, Ha Noi"
"Cong an phuong Giang Vo","police","02438343567","21.0263262","105.8227694","Pho Giang Vo, Ha Noi"
"Phong Kham Da Khoa Medlatec","hospital","0941298865","21.0472605","105.8140405","Pho Trich Sai, Phuong Buoi"
"Dang uy - UBND phuong Doi Can","townhall","0966227979","21.0343738","105.8306015","Pho Doi Can, Quan Ba Dinh, Ha Noi"
"Bo Tu lenh Canh ve","police","113","21.0331374","105.838091","Pho Le Hong Phong, Quan Ba Dinh, Ha Noi"
"Dang uy - HDND phuong Van Mieu - Quoc Tu Giam","townhall","112","21.0200219","105.8310695","Pho Ton Duc Thang, Ha Noi"
"Benh vien Da khoa Ha Thanh","hospital","842437655599","21.026761","105.8265759","Pho Vu Thanh, Ha Noi"
"Benh vien Quan y 354","hospital","115","21.0400936","105.8120457","Pho Doc Ngu, Quan Ba Dinh, Ha Noi"
"Benh vien Phoi Trung uong","hospital","115","21.0423434","105.8134109","Duong Hoang Hoa Tham, Quan Ba Dinh, Ha Noi"
"Benh vien Da khoa Xanh Pon","hospital","115","21.0312292","105.8351549","Pho Chu Van An, Quan Ba Dinh, Ha Noi"
"Trung doan 600 Bo Tu lenh Canh ve","police","113","21.0379944","105.8319066","Ha Noi"
"Dang uy - HDND - UBND phuong Ngoc Ha","townhall","112","21.0340386","105.8147016","Pho Lieu Giai, Ha Noi"
"UBND Phuong Ngoc Ha","townhall","112","21.0384517","105.8227106","Ha Noi"
"Benh vien Da khoa Quoc te Thu Cuc","hospital","115","21.0451209","105.8144621","Pho Thuy Khue, Ha Noi"
"Uy ban nhan dan phuong Ba Dinh","townhall","112","21.0461007","105.8419246","Pho Truc Bach, Ha Noi"
"Benh vien Da lieu Ha Noi","hospital","115","21.0281103","105.8385861","Pho Nguyen Khuyen, Dong Da, Ha Noi"
"Cong An Phuong Quang An","police","02437184128","21.0656439","105.8247815","Tay Ho, Tay Ho, Ha Noi"
"Doi Canh Sat PCCC & CNCH Quan Tay Ho","fire_station","0569324343","21.0720411","105.8091725","Duong Vo Chi Cong, Quan Tay Ho, Ha Noi"
"Phong Kham Y Te Nha Khoa Quoc Te SOS","hospital","0932980586","21.0637284","105.8274354","Ha Noi"
"UBND phuong Nhat Tan","townhall","112","21.0760521","105.8228151","Ha Noi"
"UBND phuong Quang An","townhall","112","21.0630195","105.8283919","Ngo 31 Duong Xuan Dieu, Tay Ho, Ha Noi"
"Dang uy - HDND - UBND phuong Tay Ho","townhall","112","21.0690404","105.8106011","Duong Lac Long Quan, Ha Noi"
"Cong an thanh pho Ha Noi - Co so Tay Ho","police","113","21.0791334","105.8156396","Duong Lac Long Quan, Tay Ho, Ha Noi"
"Benh vien Tim Ha Noi","hospital","115","21.0683662","105.8072261","Duong Vo Chi Cong, Tay Ho, Ha Noi"
"Cong an phuong Hong Ha","police","113","21.0639988","105.8332434","Pho Tu Lien, Ha Noi"
"Uy ban nhan dan phuong Hong Ha","townhall","112","21.0636838","105.8339457","Pho Tu Lien, Ha Noi"
"Cong an phuong Tay Ho","police","113","21.0642256","105.8067781","Duong Xuan La, Ha Noi"
"Doi Canh sat Giao thong so 2","police","113","21.0614939","105.8088168","Duong Xuan La, Ha Noi"
"Phong kham Da khoa Quoc te Ha Noi","hospital","0302366480","21.0101268","105.8382699","Pho Xa Dan, Ha Noi, Ha Noi"
"Thu Cuc TCI Thanh Xuan","hospital","84936188584","20.9992267","105.8141044","Nguyen Trai, Thanh Xuan, Ha Noi"
"Co so dang ky xe so 1 - Doi quan ly xe","police","0795796994","21.0160716","105.8171397","Pho Thai Ha, Dong Da, Ha Noi"
"Cong an phuong Lang","police","8402438533528","21.0125432","105.8125853","Pho Lang Ha, Ha Noi"
"Benh vien da khoa Nong nghiep 2","hospital","115","21.0135889","105.8209988","Ha Noi"
"Dang uy - HDND - UBND phuong Dong Da","townhall","112","21.0175184","105.8250301","Pho Hoang Cau, Ha Noi"
"Dang uy - UBND phuong O Cho Dua","townhall","112","21.0171684","105.8248754","Pho Hoang Cau, Ha Noi"
"Benh vien Benh Nhiet doi Trung uong","hospital","115","21.0021332","105.8388831","Ha Noi"
"Benh vien Noi tiet Trung uong","hospital","115","21.0123966","105.8150138","Ngo 82 Yen Lang, Ha Noi"
"Benh vien Da khoa Dong Da","hospital","115","21.0155559","105.8267948","Ngo 180 Nguyen Luong Bang, Dong Da, Ha Noi"
"Benh vien Bach Mai","hospital","115","21.0018102","105.8394004","Duong Giai Phong, Dong Da, Ha Noi"
"Benh vien Dai hoc Y Ha Noi","hospital","115","21.0021905","105.8301557","Pho Ton That Tung, Dong Da, Ha Noi"
"Benh vien Da khoa Quoc te Hong Ha","hospital","115","21.0268166","105.8390572","Pho Nguyen Nhu Do, Ha Noi"
"Trung doan Canh sat Co dong","police","113","21.0268827","105.8370551","Ha Noi"
"Dang uy - HDND phuong Kim Lien","townhall","112","21.0057283","105.8357065","Pho Luong Dinh Cua, Ha Noi"
"Benh vien Quoc te Dolife","hospital","8419001984","21.0334322","105.7714164","Pho Nguyen Hoang, Nam Tu Liem, Ha Noi"
"Phong kham da khoa Benh vien Dai hoc Y Ha Noi - Co so Cau Giay","hospital","0991728377","21.0350951","105.7910343","pho Truong Cong Giai, Ha Noi"
"Phong Canh sat hinh su","police","02503051846","21.0439971","105.7983917","Duong Nguyen Van Huyen, Quan Cau Giay, Ha Noi"
"UBND phuong Mai Dich","townhall","112","21.0359455","105.7785898","Tran Binh, Cau Giay, Ha Noi"
"Tru so cong an phuong Mai Dich","police","113","21.0355745","105.7785613","Ha Noi"
"Phong Canh sat PCCC va CNCH - Cong an thanh pho Ha Noi","fire_station","114","21.0253104","105.7919964","Pho Duong Dinh Nghe, Cau Giay, Ha Noi"
"Cong an quan Nam Tu Liem","police","113","21.0365172","105.7682037","Ha Noi"
"Cong an phuong Cau Giay","police","113","21.031619","105.7879972","Ngo 84 Pho Tran Thai Tong, Ha Noi"
"Vien Huyet hoc - Truyen mau Trung uong","hospital","115","21.0246967","105.7883187","Pho Pham Van Bach, Cau Giay, Ha Noi"
"Benh vien Da khoa Y hoc co truyen Ha Noi","hospital","115","21.0346916","105.7794551","Duong Pham Hung, Cau Giay, Ha Noi"
"Doi Chua chay va Cuu nan cuu ho khu vuc so 11","fire_station","114","21.0428082","105.7909745","Duong Nguyen Phong Sac, Cau Giay, Ha Noi"
"UBND phuong My Dinh 2","townhall","112","21.0249653","105.7742159","Ha Noi"
"Cong an phuong My Dinh 1","police","113","21.0202112","105.7712232","Ha Noi"
"UBND phuong My Dinh 1","townhall","112","21.019854","105.7706657","Ha Noi"
"Cong an phuong Nghia Do","police","113","21.0432263","105.7929573","Pho Nghia Tan, Ha Noi"
"UBND phuong Kien Hung","townhall","0966227979","20.9601636","105.7654144","Ha Noi"
"Benh vien Cong an thanh pho Ha Noi","hospital","0966227979","20.9628226","105.7688713","Ha Noi"
"Dang uy - HDND - UBND phuong Ha Dong","townhall","0925062823","20.9650743","105.770795","Pho Ha Cau, Ha Noi"
"Benh vien Da khoa Ha Dong","hospital","115","20.9713454","105.7744735","Ha Noi"
"Benh vien Da lieu Ha Noi (co so 2)","hospital","115","20.970065","105.7729964","Ha Noi"
"Benh vien Y hoc co truyen Ha Dong","hospital","115","20.9708813","105.7715441","Ha Noi"
"Cong an quan Ha Dong","police","113","20.967388","105.769493","Ha Noi"
"Cong an phuong Ha Cau","police","113","20.9671188","105.7750676","Ha Noi"
"Cong an phuong Ha Dong","police","113","20.9662429","105.7749898","Pho Le Hong Phong, Ha Noi"
"Doi Canh sat Giao thong so 10","police","113","20.9572608","105.7590101","Ha Noi"
"Benh vien Mat Ha Noi (Co so Ha Dong)","hospital","115","20.9716065","105.7730029","Pho Nguyen Viet Xuan, Ha Noi"
"Benh vien Phu san Ha Noi (co so 3)","hospital","115","20.9721687","105.7765643","Duong Quang Trung, Quan Ha Dong, Ha Noi"
"Dang uy - HDND - UBND phuong Duong Noi","townhall","112","20.9772948","105.7533464","Ha Noi"
"Doi Chua chay va Cuu nan cuu ho khu vuc so 15","fire_station","114","20.9516986","105.7519595","Ha Noi"
"Cong an xa Soc Son","police","02438850172","21.2710659","105.8544033","Ha Noi"
"Cong an phuong Thanh Xuan","police","02507020901","20.9896253","105.7989402","Ha Noi"
"Tram y te Khuong Ha","hospital","0904193671","20.9920389","105.8166469","Ha Noi"
"Benh vien Dai hoc Quoc gia Ha Noi","hospital","02435544833","20.9908736","105.7965721","Duong Luong The Vinh, Ha Noi"
"Benh vien mat Sai Gon Ha Noi 1","hospital","115","21.0115478","105.8104566","duong Lang, Ha Noi"
"Benh vien phuc hoi chuc nang","hospital","115","20.9994521","105.8048434","Pho Le Van Thiem, Ha Noi"
"Cong an phuong Khuong Dinh","police","113","20.9928494","105.8146462","Pho Khuong Ha, Ha Noi"
"Benh vien Dai hoc Y Duoc","hospital","842435530621","20.993668","105.7974841","Nguyen Quy Duc, Thanh Xuan, Ha Noi"
"UBND phuong Nga Tu So","townhall","842438531199","21.0039054","105.8208439","Pho Tay Son, Dong Da, Ha Noi"
"Dang uy - HDND - UBND phuong Thanh Xuan","townhall","112","20.9947377","105.7997065","Duong Khuat Duy Tien, Ha Noi"
"Phong An ninh dieu tra","police","113","20.999763","105.8087333","Ha Noi"
"Cong an phuong Dong Da","police","113","21.0088482","105.8154793","Ha Noi"
"HDND - UBND phuong Lang","townhall","112","21.0151606","105.8083291","Ngo 25 Vu Ngoc Phan, Ha Noi"
"Cong an phuong Kim Lien","police","8402438521546","21.0035071","105.8213871","Pho Tay Son, Dong Da, Ha Noi"
"UBND phuong Thinh Quang","townhall","112","21.0083681","105.8154259","Ha Noi"
"Bo Cong An Trung Hoa","police","113","21.0114358","105.7997774","Ha Noi"
"Benh vien The thao Viet Nam","hospital","0359913856","21.0231218","105.7614767","Ha Noi"
"Community Hall","townhall","0966227979","21.0121823","105.7632022","Ha Noi"
"Trung tam Y te quan Nam Tu Liem","hospital","02940384481","21.0387889","105.7657416","Ha Noi"
"Dang uy - HDND - UBND phuong Tu Liem","townhall","112","21.0393682","105.7666323","Ha Noi"
"Cong an phuong Cau Dien","police","113","21.040017","105.7651451","Ha Noi"
"UBND phuong Cau Dien","townhall","112","21.039799","105.7651922","Ha Noi"
"Doi Canh sat Giao thong so 6","police","113","21.0357208","105.7797877","Duong Pham Hung, Ha Noi"
"Benh vien Da khoa Hong Ngoc - Phuc Truong Minh","hospital","115","21.009478","105.7692152","Duong Chau Van Liem, Nam Tu Liem, Ha Noi"
"Cong an phuong Tu Liem","police","113","21.0101477","105.771017","Duong Chau Van Liem, Ha Noi"
"Tram y te Me Tri","hospital","115","21.0117954","105.7757929","Ha Noi"
"Dang uy - UBND phuong Cau Giay","townhall","112","21.0286717","105.7866047","Pho Tran Thai Tong, Ha Noi"
"Benh vien 19-8","hospital","115","21.0332206","105.7778031","Pho Tran Binh, Cau Giay, Ha Noi"
"Cong an Huyen Thach That","police","02432232737","21.0467687","105.5822141","Ha Noi"
"Cong an huyen Thach That","police","02432232737","21.0483155","105.5828944","Ha Noi"
"Doi Chua chay va Cuu nan cuu ho khu vuc so 30","fire_station","0569324343","21.0468819","105.5835753","Ha Noi"
"Benh Vien Y Hoc Co Truyen Tp.Da Nang","hospital","02363696123","16.054196","108.2190335","Da Nang"
"Benh Vien Phu Nu Tp.Da Nang","hospital","02362222055","16.0569875","108.2182556","Da Nang"
"Trung Tam Bac Si Gia Dinh Da Nang","hospital","0981677231","16.0536495","108.2089108","Da Nang"
"Hoan My General Hospital","hospital","115","16.059401","108.2098753","Nguyen Van Linh, Da Nang"
"Benh Vien Tu Binh Dan","hospital","115","16.0686754","108.2189349","Da Nang"
"Dana Dental - Nha Khoa Da Nang","hospital","115","16.0619222","108.2139467","Duong Nguyen Hoang, Hai Chau, Da Nang"
"Phong kham ACC Da Nang","hospital","115","16.0556207","108.2220154","2 thang 9, hai chau, da nanag"
"Thien Nhan Hospital","hospital","84363568988","16.076597","108.2158614","Duong Dong Da, Hai Chau, Da Nang"
"Benh vien Quan y C17","hospital","115","16.0542165","108.2073008","Da Nang"
"Trung tam Hanh chinh Thanh pho Da Nang","townhall","112","16.0770805","108.2226948","Da Nang"
"Benh vien Da Nang","hospital","115","16.0729442","108.2154554","Hai Phong, Hai Chau, Da Nang"
"Benh vien C Da Nang","hospital","115","16.0731525","108.2168358","Duong Hai Phong, Hai Chau, Da Nang"
"Benh vien Chinh hinh & Phuc hoi Chuc nang Da Nang","hospital","115","16.0736863","108.2174517","Quang Trung, Hai Chau, Da Nang"
"Benh vien Y hoc co truyen thanh pho Da Nang (co so 2)","hospital","115","16.0660463","108.2220718","Duong Tran Quoc Toan, Da Nang"
"Trung tam Y te quan Hai Chau","hospital","115","16.0765046","108.2142367","Duong Cao Thang, Da Nang"
"PCCC","police","02438254659","16.1046141","108.2544211","Thanh Vinh, Da Nang"
"Benh vien Phu san - Nhi Da Nang","hospital","0962291818","16.0226987","108.2493906","Le Van Hien, Da Nang"
"Trung tam Y te quan Ngu Hanh Son","hospital","0996375193","16.0083739","108.2571427","Da Nang"
"Benh vien Ung buou Da Nang","hospital","02363717717","16.0697057","108.1639233","Da Nang"
"Benh vien Tam than thanh pho Da Nang","hospital","0863483500","16.0795422","108.1459188","Nguyen Luong Bang, Da Nang"
"Pacific Hospital","hospital","0739675373","15.8843233","108.3280358","Quang Nam"
"Bai Dau Xe","hospital","0910791682","15.8755963","108.3229952","Quang Nam"
"Trung tam Y te thanh pho Hoi An","hospital","0391609457","15.8805848","108.332732","Quang Nam"
"Benh vien Y hoc co truyen Quang Nam","hospital","0297174676","15.5739565","108.4771455","Quang Nam"
"Cong an tinh Quang Nam","police","02353852579","15.574214","108.474294","Quang Nam"
"Benh vien Da khoa Quang Nam","hospital","0986789441","15.5718453","108.4785872","Quang Nam"
"Trung tam Y te thanh pho Tam Ky","hospital","115","15.5588527","108.4945513","Quang Nam"
"Cong an thanh pho Tam Ky","police","113","15.5636747","108.4812127","Quang Nam"
"UBND tinh Quang Nam","townhall","112","15.5712403","108.4697655","Quang Nam"
"Benh vien Da lieu Quang Nam","hospital","115","15.5703509","108.4797345","Quang Nam"
"Benh vien Trung uong Hue","hospital","02343822325","16.4621953","107.5871045","Le Loi, Hue"
"Uy ban nhan dan quan Thuan Hoa","townhall","02785841996","16.4633008","107.6024939","To Huu, Thua Thien Hue"
"Uy ban nhan dan thanh pho Hue","townhall","02343822550","16.4619415","107.5852412","Le Loi, Thua Thien Hue"
"Benh vien Quoc te Trung uong Hue","hospital","842343822325","16.4607254","107.5863483","Le Loi, Hue"
"Cong an tinh Thua Thien-Hue","police","113","16.4675966","107.5933673","Thua Thien Hue"
"Phong Kham Bac Si Gia Dinh","hospital","84855116655","16.4582724","107.5882713","Nguyen Hue, Hue"
"Canh sat PC&CC tinh Thua Thien Hue","fire_station","842343681234","16.4663668","107.5939934","Nguyen Tri Phuong, Hue"
"Trung tam Y te Thuan Hoa","hospital","115","16.4566132","107.5768488","Bui Thi Xuan, Thua Thien Hue"
"Benh vien Phuc hoi chuc nang tinh Thua Thien Hue (co so 2)","hospital","115","16.4782668","107.5880794","To Hien Thanh, Thua Thien Hue"
"Benh vien Mat Hue","hospital","115","16.4731061","107.6041137","Diem Phung Thi, Thua Thien Hue"
"Benh vien Rang Ham Mat Hue","hospital","115","16.4589498","107.5939899","Nguyen Hue, Thua Thien Hue"
"Lang Co Hospital","hospital","0936666633","16.2367913","108.078659","Thua Thien Hue"
"Prestige international polyclinic","hospital","0755011920","12.2522561","109.1883141","Tran Quy Cap, Khanh Hoa"
"Tru so Cong An thanh pho Nha Trang","police","02583513921","12.246536","109.1895153","Khanh Hoa"
"Benh vien Quan y 87","hospital","02593825479","12.2307449","109.1948779","Khanh Hoa"
"Benh vien Da khoa Khanh Hoa","hospital","115","12.2485342","109.1919559","Khanh Hoa"
"Phong canh sat 113","police","113","12.2475839","109.1896085","Khanh Hoa"
"Cong An Tinh Khanh Hoa","police","113","12.2322541","109.196753","Khanh Hoa"
"Cong an Phuong Cam Ranh","police","02583861018","11.9253287","109.1635388","Pham Hung, Khanh Hoa"
"UBND Tinh Lam Dong","townhall","02633822307","11.9361104","108.4435798","Lam Dong"
"Trung Tam Hanh Chinh Da Lat","townhall","0888030521","11.9525301","108.4462329","Lam Dong"
"Benh vien Y hoc co truyen Pham Ngoc Thach","hospital","02633822774","11.9481144","108.4594477","Quang Trung, Lam Dong"
"Cong An Tp.Bao Loc","police","02633865466","11.5477893","107.8091003","Lam Dong"
"Benh vien Y hoc co truyen Bao Loc","hospital","02633746544","11.5448334","107.8238324","Pham Ngoc Thach, Lam Dong"
"Benh vien II Lam Dong","hospital","02633860088","11.5307141","107.8085916","Tran Quoc Toan, Lam Dong"
"Uy ban Nhan dan Phuong B'Lao","townhall","112","11.5328685","107.8061029","Lam Dong"
"Dang Uy - HDND - UBND - UBMTTQ Phuong 1 Bao Loc","townhall","112","11.5510904","107.8087577","Hong Bang, Lam Dong"
"Raffles Internation Health Clinic","hospital","0328368007","10.3503097","107.0714235","Ba Ria Vung Tau"
"Phong kham BS Phuoc","hospital","0910936627","10.3469598","107.0843401","Nam Ky Khoi Nghia, Ba Ria Vung Tau"
"Cong An Phuong 4","police","02543856743","10.3531264","107.0816935","Ba Ria Vung Tau"
"UBND phuong Vung Tau","townhall","112","10.3503908","107.0760737","Ly Thuong Kiet, Ba Ria Vung Tau"
"Trung tam y te Vietsovpetro","hospital","115","10.3602708","107.0838967","Pasteur, Ba Ria Vung Tau"
"Cong An Phuong 1","police","113","10.349435","107.0755353","Tran Hung Dao, Ba Ria Vung Tau"
"UBND Phuong 3","townhall","112","10.3443475","107.0795516","Truong Cong Dinh, Ba Ria Vung Tau"
"UBND phuong 8 cu","townhall","112","10.3585128","107.0913735","Ba Ria Vung Tau"
"Cong An phuong 3","police","113","10.3470582","107.0806216","Ba Ria Vung Tau"
"UBND Phuong 1","townhall","112","10.3462044","107.0784969","Ba Ria Vung Tau"
"Cong An phuong 8","police","113","10.3596508","107.0927997","Ba Ria Vung Tau"
"Tru so Canh sat PCCC Tp Vung Tau","fire_station","114","10.3357539","107.0872173","Ba Ria Vung Tau"
"Cong an phuong Vung Tau","police","113","10.3359071","107.0869111","Hoang Hoa Tham, Ba Ria Vung Tau"
"Trung tam Quan dan y dac khu Con Dao","hospital","02543702075","8.6853723","106.6046417","Le Hong Phong, Ba Ria Vung Tau"
"Uy ban nhan dan dac khu Con Dao","townhall","0706105243","8.6823715","106.6072424","Ton Duc Thang, Ba Ria Vung Tau"
"Cong An huyen Con Dao","police","02543830207","8.6864677","106.6119484","Ba Ria Vung Tau"
"Trung tam Quan Dan Y Con Dao (moi)","hospital","115","8.6932146","106.5996987","Huynh Thuc Khang, Ba Ria Vung Tau"
"Dien luc Phan Thiet","townhall","02522211944","10.9293173","108.1022771","Binh Thuan"
"So Thong tin - Truyen thong","townhall","0881589956","10.9285721","108.1024163","Binh Thuan"
"UBND Tinh Binh Thuan","townhall","0978326999","10.9283387","108.1015398","Binh Thuan"
"An Phuoc","hospital","115","10.9321621","108.0978252","Tran Phu, Binh Thuan"
"Cong an Tinh Binh Thuan","police","113","10.9301425","108.1100806","Binh Thuan"
"Trung tam Y te thanh pho Phan Thiet","hospital","115","10.9335495","108.0957972","Binh Thuan"
"Benh vien Da khoa tinh Binh Thuan","hospital","115","10.9401633","108.089251","Binh Thuan"
"Benh vien Phoi tinh Binh Thuan","hospital","115","10.9343327","108.0961539","Binh Thuan"
"Benh vien Da lieu tinh Binh Thuan","hospital","115","10.9328823","108.0952084","Binh Thuan"
"Dang uy - HDND - UBND xa Tam Thanh","townhall","0389845583","10.5098732","108.9465617","Vo Van Kiet, Phu Quy, Binh Thuan"
"Uy Ban Nhan Dan Thanh Pho Quy Nhon","townhall","02563822176","13.7701048","109.2324201","Nguyen Hue, Quy Nhon"
"Hoi Truong Quang Trung","townhall","0334891885","13.7767905","109.2268218","Binh Dinh"
"HDND - UBND tinh Binh Dinh","townhall","02563822294","13.7686352","109.2274795","Binh Dinh"
"Cong an tinh Binh Dinh","police","113","13.7692892","109.2260716","Binh Dinh"
"Benh vien Da khoa trung tam tinh Gia Lai","hospital","115","13.7673297","109.225256","Binh Dinh"
"Benh vien Quan Y","hospital","0573823219","13.0969173","109.3148522","Phu Yen"
"UBND Tinh Phu Yen","townhall","02573810761","13.094911","109.3220405","Phu Yen"
"Tram xa","hospital","115","13.0968492","109.314674","Phu Yen"
"Cong an thanh pho Tuy Hoa","police","113","13.0944041","109.3211572","Phu Yen"
"Benh vien Mat Phu Yen","hospital","115","13.0922983","109.3025702","Phu Yen"
"Uy Ban Mat Tran To Quoc Viet Nam","townhall","0300743549","12.6816608","108.0446575","Dak Lak"
"Phong Canh sat PCCC","fire_station","02623611114","12.6781615","108.0470831","Dak Lak"
"Tree Spa","hospital","0279119624","12.6741148","108.0456056","Dinh Tien Hoang, Buon Ma Thuot"
"TT Y te du phong Dak Lak","hospital","115","12.6677459","108.0393416","Le Duan, Dak Lak"
"UBND phuong Tu An","townhall","112","12.6759842","108.0468329","Pham Hong Thai, Dak Lak"
"Cong an phuong Tan Thanh","police","113","12.6654993","108.0360974","Y On, Dak Lak"
"HDND - UBND tinh Dak Lak","townhall","112","12.6740092","108.0435035","Dak Lak"
"Benh vien Da khoa Vung Tay Nguyen","hospital","115","12.6641098","108.0556856","Dak Lak"
"Thi Hanh An Dan Su Thanh pho Pleiku","police","02693888059","13.9839589","107.994964","Gia Lai"
"Trung tam Y te thanh pho Pleiku","hospital","0913452000","13.9793642","107.990562","Tran Quoc Toan, Gia Lai"
"Phong Canh Sat Pccc Tinh Gia Lai","police","02693821625","13.9771388","107.9916965","Gia Lai"
"Cong An Huyen Kon Plong","police","02603848011","14.5977655","108.2923966","Kon Tum"
"Trung tam Y te Kon Plong","hospital","0915142287","14.597239","108.2938771","Quoc lo 24, Kon Tum"
"Benh vien Da khoa so 4 tinh Lao Cai","hospital","0977050144","22.3477405","103.8572444","Lao Cai"
"Uy Ban nhan dan Xa Ban Pho","townhall","0214862516","22.5534493","104.2763132","Lao Cai"
"UBND thanh pho Ha Long","townhall","02033611792","20.9499846","107.0734756","Quang Ninh"
"Benh vien Da khoa Vinmec Ha Long","hospital","0798911368","20.952021","107.0719036","Quang Ninh"
"Benh vien Da khoa tinh Quang Ninh","hospital","02033825489","20.9537374","107.0883738","Quang Ninh"
"Huyen uy - HDND - UBND huyen Co To","townhall","0936490568","20.9731786","107.7656322","Quang Ninh"
"Cong an huyen Co To","police","0341750672","20.9712363","107.7661537","Quang Ninh"
"Benh vien Da khoa khu vuc Van Don (co so 2)","hospital","0983103854","20.972835","107.7700603","Quang Ninh"
"Trung tam Y te Cat Hai","hospital","02253888239","20.7351959","107.0427575","Hai Phong"
"Cong An Phuong Van Huong","police","0934660743","20.6945695","106.7932228","Hai Phong"
"Cong An Phuong Hai Son","police","02253861372","20.711361","106.7908953","Hai Phong"
"Dang uy - HDND - UBND thi tran Tam Dao","townhall","02113853831","21.4546683","105.6448324","Vinh Phuc"
"Cong an thi tran Tam Dao","police","02113853864","21.4550804","105.6436553","Vinh Phuc"
"Trung tam Y te khu vuc Mai Chau","hospital","115","20.6558295","105.0790795","Hoa Binh"
"Benh vien Da khoa khu vuc Dong Van","hospital","02193856215","23.2756427","105.3692159","Ha Giang"
"UBND thi tran Dong Van","townhall","02193856494","23.276145","105.3655483","Ha Giang"
"Cong an xa Dong Van","police","02193856104","23.2776662","105.3619974","Ha Giang"
"Benh vien Da khoa khu vuc Meo Vac","hospital","02193871113","23.1725036","105.4110755","Ha Giang"
"Uy ban nhan dan thi tran Meo Vac","townhall","02193871696","23.1667551","105.4059917","Ha Giang"
"Cong an huyen Meo Vac","police","02193871105","23.1649825","105.4092608","Ha Giang"
"Trung tam Nghien cuu UD va dao tao huan luyen PCCC","fire_station","0384889999","18.6652939","105.6762778","Cao Xuan Huy, Nghe An"
"Trung tam Ung dung KHCN Phong chay","police","0987106789","18.6652154","105.6763453","Cao Xuan Huy, Nghe An"
"Trung tam UDKHCN Phong chay","fire_station","0889391818","18.6653276","105.676333","Cao Xuan Huy, Nghe An"
"HDND - UBND tinh Nghe An","townhall","112","18.6732046","105.6923178","Truong Thi, Vinh"
"Cong an tinh Nghe An","police","113","18.6746951","105.6929131","Truong Thi, Vinh"
"Benh vien Da khoa thanh pho Vinh","hospital","115","18.664738","105.6835777","Nghe An"
"Hoi dong nhan dan - Uy ban nhan dan phuong Thanh Vinh","townhall","112","18.6687724","105.6829456","Duong Le Mao, Nghe An"
"Benh vien Da lieu Nghe An","hospital","115","18.6755699","105.6881458","Nghe An"
"Benh vien Noi tiet Nghe An","hospital","115","18.693395","105.6738102","Mai Hac De, Nghe An"
"Benh vien Y hoc co truyen Nghe An","hospital","115","18.6876752","105.6959739","Nghe An"
"Benh vien Phuc hoi chuc nang Nghe An","hospital","0867088858","18.806787","105.7233763","Nghe An"
"Trung tam Y te thi xa Cua Lo","hospital","02383955477","18.7959964","105.7247524","Nghe An"
"HDND - UBND thi xa Cua Lo","townhall","02383824330","18.7961637","105.7270214","Nghe An"
"Cong an thi xa Cua Lo","police","113","18.7950004","105.7252962","Nghe An"
"Benh vien Huu nghi Viet Nam - Cuba Dong Hoi","hospital","0962451414","17.4743404","106.6006971","Dong Hoi"
"UBND phuong Bac Ly","townhall","0887079211","17.4758108","106.5940845","Quang Binh"
"UBND phuong Dong Hoi","townhall","02323822091","17.4680994","106.6029587","Quang Binh"
"Benh vien Y hoc co truyen va Phuc hoi chuc nang Bac Quang Tri","hospital","115","17.4756319","106.6051418","Tran Quang Khai, Quang Binh"
"Benh vien Mat Bac Quang Tri","hospital","115","17.4749688","106.605149","Quang Binh"
"Cong An Tinh Quang Tri","police","113","17.4782823","106.6060893","Quang Binh"
"Phong Canh Sat Phong Chay Chua Chay","fire_station","114","17.4771654","106.6032273","Quang Binh"
"Cong an 113","police","113","17.4720249","106.60395","Quang Binh"
"UBND Phuong Dong Giang","townhall","02333857451","16.8288023","107.0994626","Quang Tri"
"UBND Dong Le","townhall","02333859681","16.8110203","107.1140562","Quang Tri"
"Trung tam Y te khu vuc Dong Ha","hospital","0571750112","16.8106107","107.109335","Le Loi, Quang Tri"
"Uy ban nhan dan phuong Dong Ha","townhall","112","16.822021","107.0998465","Quang Tri"
"Cong an phuong Dong Ha","police","113","16.8150803","107.1058534","Quang Tri"
"Trung tam Y te Quan dan y dac khu Ly Son","hospital","02553867211","15.373608","109.1138387","Quang Ngai"
"Cong an Huyen","police","02553867231","15.3726719","109.1198622","Quang Ngai"
"Benh vien Da khoa tinh Quang Ngai","hospital","02553827899","15.1151154","108.79051","Quang Ngai"
"Benh vien San - Nhi tinh Quang Ngai","hospital","02553824535","15.1201368","108.789826","Quang Ngai"
"Benh vien Y hoc co truyen tinh Quang Ngai","hospital","02553717109","15.1203762","108.7891685","Quang Ngai"
"Benh vien Tam than tinh Quang Ngai","hospital","115","15.1063161","108.7904633","Quang Ngai"
"Benh vien Lao va Benh phoi tinh Quang Ngai","hospital","115","15.1030479","108.7794526","Quang Ngai"
"Trung tam Mat tinh Quang Ngai","hospital","115","15.1118446","108.7871048","Quang Ngai"
"UBND thanh pho Rach Gia","townhall","02973862082","10.0090739","105.0830794","Kien Giang"
"Benh vien Da khoa tinh Kien Giang","hospital","0792243507","10.0080017","105.0827232","Kien Giang"
"UBND phuong Vinh Thanh Van","townhall","02973862082","10.0125845","105.0876081","Kien Giang"
"Benh vien Binh An","hospital","115","10.0046076","105.0865475","Kien Giang"
"Benh vien phu san quoc te Phuong Chau","hospital","0550572609","10.0303545","105.7513901","Can Tho"
"Cong an phuong An Khanh","police","02923894939","10.0398113","105.7587283","Nguyen Van Cu Noi dai, Can Tho"
"Trung doan canh sat co dong Tay Nam Bo","police","0723261001","10.0335","105.749","Can Tho"
"Benh vien Da khoa Trung uong Can Tho","hospital","115","10.0294593","105.7557932","Nguyen Van Linh, Ninh Kieu, Can Tho"
"Trung doan canh sat co dong Thanh pho Can Tho","police","113","10.0345062","105.7496396","Can Tho"
"Benh vien Truong Dai hoc Y Duoc Can Tho","hospital","115","10.0346617","105.7552941","Can Tho"
"UBND Phuong An Khanh","townhall","112","10.0394432","105.7581929","Nguyen Tri Phuong, Ninh Kieu, Can Tho"
"Benh Vien Tam Than tp. Can tho","hospital","02923863056","10.0130976","105.7570655","3 Thang 2, Can Tho"
"Doanh trai quan doi nhan dan Viet Nam","police","0395007932","9.9937399","105.7553762","Can Tho"
"Ban chi huy quan su","police","0952996653","9.9984417","105.7458007","Can Tho"
"Benh vien Y hoc co truyen thanh pho Can Tho","hospital","847103838050","10.0127399","105.7584454","Duong 30 Thang 4, Can Tho"
"Benh vien Da lieu thanh pho Can Tho","hospital","115","10.0133779","105.7551037","Hem 12 duong 3 Thang 2, Can Tho"
"Cong an quan Cai Rang","police","113","9.994459","105.7485387","Can Tho"
"Trung tam Kiem soat benh tat thanh pho Can Tho","hospital","115","10.0154986","105.7371419","Can Tho"
"Benh vien Da lieu Can Tho","hospital","115","10.0110612","105.7512797","Can Tho"
"Trung tam Y te khu vuc Cai Rang","hospital","115","9.9987336","105.7590495","Can Tho"
"Benh vien Nhat Tan","hospital","02963562357","10.70355","105.1259434","An Giang"
"Benh vien Da khoa Thanh pho Chau Doc","hospital","0334585997","10.6992942","105.1031083","Chau Doc, Phuong Chau Phu A"
"So Tai Nguyen M&T Bac Lieu","townhall","0363856569","9.2937168","105.7284972","Bac Lieu"
"So xay dung","townhall","02913823824","9.2933096","105.7276502","Bac Lieu"
"So Cong Thuong","townhall","0982414979","9.2931478","105.7272957","Bac Lieu"
"So giao thong van tai","townhall","112","9.2930256","105.7269328","Bac Lieu"
"So Y te","townhall","112","9.2928735","105.7265985","Bac Lieu"
"So giao duc va dao tao","townhall","112","9.2927088","105.7261133","Bac Lieu"
"Cty Dien luc","townhall","112","9.2956096","105.7264612","Bac Lieu"
"Cuc thue","townhall","112","9.2953711","105.726129","Bac Lieu"
"BHXH Bac Lieu","townhall","112","9.2950851","105.7255148","Bac Lieu"
"Dang uy khoi","townhall","112","9.2919395","105.7234343","Bac Lieu"
"Cong an tinh Bac Lieu","police","113","9.29512","105.7294792","Bac Lieu"
"Kho bac nha nuoc Bac Lieu","townhall","112","9.2952993","105.7234774","Bac Lieu"
"Ngan hang nha nuoc Bac Lieu","townhall","112","9.2951349","105.7230709","Bac Lieu"
"Thanh uy","townhall","112","9.2868347","105.7236647","Bac Lieu"
"UBND Thanh pho Bac Lieu","townhall","112","9.2862541","105.7237467","Bac Lieu"
"Van phong doan DDBQH & HDND tinh Soc Trang (Thanh pho Soc Trang)","townhall","0366485171","9.6005706","105.9720346","Soc Trang"
"So Tai chinh","townhall","0720230904","9.6004225","105.9723297","Soc Trang"
"Lien doan lao dong tinh Soc Trang","townhall","0793822551","9.6004026","105.9726039","Soc Trang"
"Trung tam thong tin luu tru tinh Soc Trang","townhall","112","9.6001951","105.9721365","Soc Trang"
"Uy ban MTTQVN tinh Soc Trang","townhall","112","9.5998565","105.971761","Soc Trang"
"So GTVT","townhall","112","9.5981745","105.9714338","Soc Trang"
"So noi vu","townhall","112","9.599042","105.9715894","Soc Trang"
"Tinh doan Soc Trang","townhall","112","9.5993304","105.9726323","Soc Trang"
"So ke hoach va dau tu","townhall","112","9.5990659","105.9725625","Soc Trang"
"So Van Hoa","townhall","112","9.5987592","105.9723909","Soc Trang"
"Cong an tinh Soc Trang","police","113","9.6144146","105.968835","Soc Trang"
"Dang bo tinh Soc Trang","townhall","112","9.6017279","105.9717445","Soc Trang"
"HDND - UBND tinh Soc Trang","townhall","112","9.5990668","105.9707164","Soc Trang"
"Benh vien Chuyen khoa San - Nhi Soc Trang","hospital","115","9.6113599","105.9794954","Soc Trang"
"Benh vien Quan dan y tinh Soc Trang","hospital","115","9.5912066","105.9653945","Soc Trang"
"Benh vien Quoc te Hoan My Dong Nai","hospital","0918749204","10.9581894","106.8472751","Dong Nai"
"Benh vien Quan y 7B","hospital","02513996060","10.9655508","106.8528534","Duong Nguyen Ai Quoc, Thanh pho Bien Hoa"
"Cong an tinh Dong Nai","police","02518820999","10.9593246","106.8362097","Dong Nai"
"Cong an phuong Tan Tien","police","113","10.9640167","106.8474183","Dong Nai"
"Benh vien Tam than Trung uong 2","hospital","115","10.9669953","106.8455307","Duong Nguyen Ai Quoc, Thanh pho Bien Hoa"
"Cong an phuong Thong Nhat","police","113","10.9561994","106.8362208","Dong Nai"
"Cong an phuong Tam Hiep","police","113","10.9463996","106.8568619","Dong Nai"
"Trung tam Y te Khu vuc Bien Hoa","hospital","115","10.9525208","106.8522011","Dong Nai"
"Phong Canh sat Giao thong tinh Dong Nai","police","113","10.9592758","106.8401971","Dong Nai"
"Cong an phuong Tan Mai","police","113","10.9553357","106.8504648","Dong Nai"
"Co quan Dieu tra Hinh su Khu vuc 72","police","113","10.9643895","106.8348536","Dong Nai"
"Phong Canh sat Kinh te tinh Dong Nai","police","113","10.968063","106.8573565","Duong Nguyen Ai Quoc, Thanh pho Bien Hoa"
"Cong an phuong Tan Hiep","police","113","10.9615892","106.8556373","Duong Dong Khoi, Dong Nai"
"Phong Ky thuat Hinh su Tinh Dong Nai","police","113","10.9680978","106.8552793","Dong Nai"
"Vien Phap y Tam than Trung uong Bien Hoa","hospital","115","10.9693723","106.8451401","Dong Nai"
"Benh vien Y hoc co truyen Binh Duong","hospital","0848612192","10.980771","106.6577829","BS Yersin, Binh Duong"
"Benh vien Da khoa Binh Duong","hospital","02743822920","10.9975187","106.6551913","Pham Ngoc Thach, Binh Duong"
"UBND Phuong HIep Thanh","townhall","02787161126","10.9930358","106.6569131","Binh Duong"
"Trung tam Y te khu vuc Thu Dau Mot","hospital","115","10.9781083","106.6542386","Binh Duong"
"Phong Canh sat Phong chay va Chua chay Tinh Binh Duong","fire_station","114","10.9945611","106.6543661","Dai lo Binh Duong, Binh Duong"
"UBND Thanh pho Thu Dau Mot","townhall","112","10.985812","106.6650869","Binh Duong"
"Benh vien Da khoa khu vuc Long Thanh","hospital","115","10.7934219","106.9482507","Long Thanh, Dong Nai"
"Trung tam Y te huyen Long Thanh","hospital","02513546157","10.7924667","106.9500077","Dong Nai"
"UBND Thanh pho Di An","townhall","02743742864","10.89156","106.7629132","Binh Duong"
"UBND Phuong Dong Hoa","townhall","02743742864","10.8911561","106.7848039","Binh Duong"
"Benh vien Hoan My Thu Duc","hospital","0941298865","10.887672","106.7737207","Binh Duong"
"Benh vien Da khoa Vinh Long","hospital","02703823520","10.2318033","105.9889527","Duong Tran Phu, Vinh Long"
"Uy ban nhan dan tinh Vinh Long","townhall","02703823100","10.2536883","105.9722922","Vinh Long"
"Benh vien Y duoc co truyen Vinh Long","hospital","0270382342","10.2512465","105.9786407","Vinh Long"
"Uy ban nhan dan Thanh pho Vinh Long","townhall","112","10.2533913","105.9769268","Vinh Long"
"bien vien le ngoc tung","hospital","02763797999","11.3084036","106.1077786","Tay Ninh"
"Benh vien Thanh pho Tay Ninh","hospital","0223732748","11.3085891","106.0956805","Tay Ninh"
"Benh vien Da khoa Le Ngoc Tung","hospital","02763797999","11.3083561","106.1070346","Tay Ninh"
"Benh vien Da khoa Tien Giang","hospital","02733850850","10.3551757","106.3650387","Hung Vuong, Tien Giang"
"Benh vien Phu san Tien Giang","hospital","02733887160","10.3568212","106.3647127","Hung Vuong, My Tho"
"Dang uy - HDND - UBND phuong 4","townhall","84733872790","10.3589271","106.3599392","Tet Mau Than, My Tho"
"Benh vien Quan y 120","hospital","115","10.355113","106.3382192","Nguyen Thi Thap, my tho"
"Trung tam Y te thanh pho Mi Tho","hospital","115","10.3645962","106.3642142","Tien Giang"
"UBND xa Tam An","townhall","112","10.800293","106.923981","Ho Chi Minh"
"UBND Long Phuoc","townhall","112","10.712663","107.004901","Ho Chi Minh"
"Phong Chan Tri Y Hoc Co Truyen Tu Nhan","hospital","115","10.5371749","106.4121969","Ho Chi Minh"
"Benh Vien Da Khoa Long An - Khoa Noi A1","hospital","115","10.5392545","106.4194209","Ho Chi Minh"
"Diem So Cap Cuu","hospital","115","10.5448297","106.3882369","Ho Chi Minh"
"Cong An Phuong An Phu","police","113","10.791621","106.7458175","Ho Chi Minh"
"Tru So Cong an Phuong 1","police","113","10.7576019","106.6927952","Ho Chi Minh"
"Cong An Quan Binh Tan","police","113","10.7305965","106.6020235","Ho Chi Minh"
"Cong An Phuong An Phu Dong","police","113","10.860592","106.6867576","Ho Chi Minh"
"Cong An Phuong Tan Phong","police","113","10.7359966","106.702403","Ho Chi Minh"
"Cong An Phuong 12, Go Vap","police","113","10.8440568","106.6403038","Ho Chi Minh"
"UBND xa Long Phuoc","townhall","112","10.71257","107.004788","Ho Chi Minh"
"UBND phuong Phu Huu","townhall","112","10.79191","106.799223","Ho Chi Minh"
"Cong An quan 9","police","113","10.8493385","106.7751594","Ho Chi Minh"
"Trung Tam Chan Doan Y Khoa Medic - BV Hoa Hao","hospital","115","10.762528","106.6701859","Ho Chi Minh"
"Benh vien Da khoa Quoc Te Mien Dong","hospital","115","10.9034999","106.7102737","Ho Chi Minh"
"Thuoc Nam Thay Thanh","hospital","115","11.0253391","106.6312288","Ho Chi Minh"
"Benh Vien Quoc Te Minh Anh","hospital","115","10.747644","106.6143869","Ho Chi Minh"
"Cong An Quan Binh Thanh","police","113","10.8033004","106.6911062","Ho Chi Minh"
"Cong an phuong Hiep Phu","police","113","10.8453653","106.782065","Ho Chi Minh"
"Cong An Phuong 10, Quan 10","police","113","10.7697473","106.6738159","Duong Le Hong Phong, Ho Chi Minh"
"Phong Thi Nghiem - Kiem Tra Suc Khoe","hospital","115","10.7603786","106.6798139","Ho Chi Minh"
"HTV","hospital","115","10.9298113","106.6855964","hat, Ho Chi Minh"
"Chot Cong An Phuong 2, Quan Tan Binh","police","113","10.8165156","106.6778678","Bach Dang, Ho Chi Minh"
"Tru So Cong An - Phuong Cau Kho","police","113","10.7593996","106.6880892","Duong Tran Hung Ðao, Ho Chi Minh"
"Benh Vien Da Khoa My Duc","hospital","0838100290","10.7999684","106.6415956","Hem 4 Nui Thanh, Ho Chi Minh"
"Cong An Phuong Binh Hung Hoa A","police","113","10.793936","106.6103897","Ho Chi Minh"
"Cong An Phuong 8 Quan 4","police","113","10.7596901","106.7020933","Ben Van Don, Ho Chi Minh"
"Cong an xa An Phu Tay","police","113","10.6837896","106.6059033","Ho Chi Minh"
"Trung Tam Hien Mua Nhan Dao","hospital","38658509","10.7756389","106.6557898","So 6, Thien Phuoc, P9, Q. Tan Binh, Ho Chi Minh"
"Tru So Cong An - Phuong 13","police","113","10.7636795","106.6557663","Duong Le Dai Hanh, Ho Chi Minh City"
"Benh Vien Hoa Hao","hospital","115","10.7626193","106.6702604","Ho Chi Minh"
"Chot CSGT Tan Son Nhat","police","113","10.7971257","106.6776326","Tran Huy Lieu, Ho Chi Minh"
"Doi CSGT Hang Xanh","police","113","10.8232643","106.7141888","Cau Binh Trieu 1, Ho Chi Minh"
"Cong An Phuong Phuoc Long B","police","02837313674","10.8265584","106.7689543","Duong Do Xuan Hop, Ho Chi Minh"
"Cong An Phuong Phuoc Long A","police","02838978421","10.8264255","106.7618579","Duong Nam Hoa, Ho Chi Minh"
"Cong An Phuong Phuoc Binh","police","02837314057","10.8157749","106.7744902","Duong Do Xuan Hop, Ho Chi Minh"
"Phong Kham Da Khoa The Gioi","hospital","115","10.7519331","106.6843795","Vo Van Kiet, Ho Chi Minh City"
"Cong An Phuong Long Truong","police","113","10.8053604","106.8164763","Nguyen Duy Trinh, Ho Chi Minh"
"Doi CSHS - CAQ9","police","02838966109","10.8490473","106.7761295","Duong Song Hanh Xa lo Ha Noi, Ho Chi Minh"
"Cong An Phuong Phu Huu","police","02837316010","10.7915081","106.799208","Nguyen Duy Trinh, Ho Chi Minh"
"Nha tam giu CAQ9","police","113","10.8488374","106.7762167","Tan Lap 1, Ho Chi Minh"
"Cong An Phuong Tang Nhon Phu B","police","02837307394","10.8355833","106.7826086","Dinh Phong Phu, Ho Chi Minh"
"Columbia Asia Hospital","hospital","115","10.9507189","106.7070657","Duong 22 Thang 12, Ho Chi Minh"
"Doi canh sat QLHC ve TTXH","police","113","10.8492254","106.7760746","Xa Lo Ha Noi, Ho Chi Minh"
"Doi canh sat QLHC ve TTXH CAQ9","police","113","10.8493507","106.7759627","Ho Chi Minh"
"cong an huyen Can Giuoc","police","113","10.6031567","106.6658828","Nguyen Thi Bay, Ho Chi Minh"
"Doi CSGT Cat Lai","police","113","10.7884167","106.7498351","Ho Chi Minh"
"CSGT - CAQ9","police","113","10.8499868","106.7755612","Ho Chi Minh"
"Cong An Phuong Long Thanh My","police","02837330188","10.8425079","106.8238246","Duong so 17, Ho Chi Minh"
"Phong kham da khoa quoc te Nhan Hau","hospital","+842862642960","10.7585783","106.6617832","Duong Nguyen Chi Thanh, Ho Chi Minh City"
"Phong Kham Da Khoa An Phuc","hospital","115","10.7587193","106.6621153","Duong Nguyen Chi Thanh, Ho Chi Minh"
"Tram Y Te Phuong 7 Quan Phu Nhuan","hospital","115","10.8037666","106.6865787","Ho Chi Minh"
"Phong kham ACC Quan 5","hospital","115","10.759465","106.6834753","Nguyen Trai, ho chi minh city"
"Doi Canh Sat PCCC Vinh Tan - Canh sat PCCC So 5","fire_station","114","11.1358533","106.6973077","Ho Chi Minh"
"Cong An Phuong 12 Quan 6","police","113","10.7507286","106.630413","Duong Kinh Duong Vuong, Quan 6, Ho Chi Minh"
"Phong Canh Sat 1","police","113","10.8331156","106.7065044","Ho Chi Minh"
"Phong Canh Sat 2","police","113","10.8324307","106.7099323","Ho Chi Minh"
"Phong Canh Sat 3","police","113","10.8312083","106.706542","Ho Chi Minh"
"Benh vien Da khoa Tan Hung","hospital","115","10.7515951","106.696342","Ho Chi Minh"
"Benh vien Da khoa Tam Tri Sai Gon","hospital","115","10.8317212","106.6218645","Ho Chi Minh"
"Benh Vien Da khoa An Phu","hospital","115","10.9475149","106.7371674","Ho Chi Minh"
"Benh Vien Hoan Hao 2","hospital","115","10.8910082","106.7273892","Ho Chi Minh"
"Benh vien Gia An 115","hospital","115","10.7405442","106.607722","Ho Chi Minh"
"Benh vien Y hoc co truyen Thanh pho Ho Chi Minh (co so 2)","hospital","115","10.7525482","106.665751","Duong Tran Hung Ðao, Ho Chi Minh"
"UBND Xa Nhon Thanh Trung","townhall","112","10.5453929","106.4404158","Xa Nhon Thanh Trung, Tan An"
"Trung Tam Y Te Huyen Nhon Trach Tram Y Te Xa Phuoc Khanh","hospital","115","10.6798522","106.7874696","Nhon Trach, Ho Chi Minh"
"UBND phuong 8 quan 8","townhall","112","10.7501198","106.6783142","Hung Phu, Quan 8, Ho Chi Minh City"
"UBND xa Thuan My","townhall","112","10.4450516","106.5623605","Chau Thanh, Ho Chi Minh"
"Cong An Xa Thuan My","police","113","10.4454848","106.5643158","Chau Thanh, Ho Chi Minh"
"UBND xa Tan Trach","townhall","112","10.5640062","106.5727126","DT. 830, Can Duoc, Ho Chi Minh"
"Tram Y Te Xa Binh Trinh Dong","hospital","115","10.5393794","106.5156639","Tan Tru, Ho Chi Minh"
"Benh vien Can Duoc","hospital","115","10.5145217","106.6042986","Quoc lo 50, Can Duoc, Ho Chi Minh"
"Tram y te xa Phuoc Dong","hospital","115","10.4886683","106.6222104","Quoc lo 50, Can Duoc, Ho Chi Minh"
"Cong An Thi Tran Can Duoc","police","113","10.5007527","106.6038759","Can Duoc, Ho Chi Minh"
"Tram Y Te Xa Tan An","hospital","115","10.4953379","106.5962387","Can Duoc, Ho Chi Minh"
"Tram Y Te Xa An Hoa","hospital","115","10.8888316","106.8616285","Duong Ngo Quyen, An Hoa, Thanh pho Bien Hoa"
"Cong An An Hoa","police","113","10.8883024","106.8611602","Duong Ngo Quyen, An Hoa, Thanh pho Bien Hoa"
"Cong an phuong Binh Trung Dong","police","113","10.7895299","106.7714647","Ho Chi Minh"
"Kyo","hospital","115","10.8375648","106.8153901","Duong D1, Ho Chi Minh"
"Doi PCCC & CNCH Quan Go Vap","fire_station","114","10.8281251","106.685038","Ho Chi Minh"
"UBND phuong An Tinh","townhall","112","11.0239138","106.391149","Quoc lo 22, Thi xa Trang Bang, Phuong An Tinh"
"UBND phuong Loc Hung","townhall","112","11.0906353","106.3767791","Duong tinh 787, Thi xa Trang Bang, Phuong Loc Hung"
"Cong an phuong Trang Bang","police","113","11.0359663","106.361487","Duong Boi Loi, Trang Bang, Ho Chi Minh"
"UBND phuong Gia Loc","townhall","112","11.0544264","106.3495949","Duong tinh 782, Trang Bang, Ho Chi Minh"
"UBND Phuong Trang Bang","townhall","112","11.0294294","106.3582232","Duong Gia Long, Trang Bang, Phuong Trang Bang"
"Trung doan Canh sat Co dong 3","police","113","10.7659795","106.6461283","Ho Chi Minh"
"Cong An Phuong 16 Quan 8","police","113","10.7124607","106.6239147","Duong Ben Phu Dinh, Quan 8, Thanh pho Ho Chi Minh"
"Nha Khoa SingDent","hospital","115","10.7404252","106.6998107","Duong Nguyen Thi Thap, Quan 7, Ho Chi Minh"
"Wedo Skin Clinic","hospital","+84 07 07 19 66 22","10.7982784","106.7384179","Thai Thuan, Thanh pho Thu Duc, Phuong An Phu"
"BlueSAO VIET NAM","hospital","115","10.9585849","106.8010104","Thanh pho Bien Hoa"
"Cong an phuong Long Binh","police","113","10.8675652","106.8401329","Duong Tran Trong Khiem, Ho Chi Minh"
"Vien tham my Bac si Minh","hospital","115","10.7575935","106.6782304","Le Hong Phong, Quan 5, Ho Chi Minh City"
"Phong kham Dac Tin","hospital","115","11.0692339","106.6589666","Nguyen Van Thanh, Ben Cat"
"Benh Vien Tham My Siam Thailand","hospital","+84942225222","10.7605922","106.6855655","Nguyen Trai, Thanh pho Ho Chi Minh"
"Yoga tri lieu l Ci Yoga Therapy CN Celadon","hospital","0336583639","10.8054227","106.6151358","Duong N2, Ho Chi Minh"
"Benh vien Quan y 175","hospital","115","10.8184252","106.6808112","Nguyen Kiem, Quan Go Vap, Tp. Ho Chi Minh"
"Cong an Thanh pho Ho Chi Minh","police","113","10.7589883","106.686403","Duong Tran Hung Ðao, Ho Chi Minh"
"Benh vien Hung Vuong","hospital","115","10.7562251","106.6616571","Duong Hong Bang, Ho Chi Minh"
"Benh vien 30 Thang 4","hospital","115","10.7590776","106.6730558","Yet Kieu, Quan 5, Ho Chi Minh"
"Benh vien An Binh","hospital","115","10.7541327","106.6722008","Duong An Binh, Ho Chi Minh City"
"Benh vien Truyen mau Huyet hoc","hospital","115","10.7565034","106.6658762","Duong Hong Bang, Ho Chi Minh"
"Benh vien Benh Nhiet doi","hospital","115","10.7531975","106.6783574","Vo Van Kiet, Ho Chi Minh City"
"Benh vien Pham Ngoc Thach","hospital","115","10.7572199","106.6650519","Duong Hong Bang, Ho Chi Minh"
"Benh vien Dai hoc Y Duoc Thanh pho Ho Chi Minh","hospital","+84 28 3855 4269","10.755269","106.6645786","Hong Bang, Ho Chi Minh"
"Benh vien Nguyen Trai","hospital","115","10.7568408","106.6750363","Duong Nguyen Trai, Ho Chi Minh City"
"Uy ban nhan dan phuong Phu Nhuan","townhall","112","10.7951273","106.6753777","Nguyen Van Troi, Ho Chi Minh"
"Uy ban nhan dan phuong Tan Thuan","townhall","112","10.7490065","106.728401","Huynh Tan Phat, Ho Chi Minh"
"Benh vien Quoc te Hanh Phuc","hospital","+84 650 3636068","10.8678097","106.7142927","Ho Chi Minh"
"Benh vien Trung Vuong","hospital","115","10.7708709","106.6595573","Ly Thuong Kiet, Quan 10, Ho Chi Minh City"
"Uy ban nhan dan phuong Long Truong","townhall","112","10.8056944","106.8165106","Nguyen Duy Trinh, Ho Chi Minh"
"Benh vien Nhi dong 1","hospital","115","10.7688069","106.6699394","Duong Ly Thai To, Quan 10, Ho Chi Minh"
"Trung tam Y te huyen Nhon Trach","hospital","115","10.7268301","106.8844457","Ho Chi Minh"
"Benh vien Van Hanh","hospital","115","10.7718189","106.6713752","Ho Chi Minh"
"Uy ban nhan dan phuong Phu Thuan","townhall","112","10.7219398","106.7363328","Huynh Tan Phat, Ho Chi Minh"
"Trung tam Y te khu vuc Di An","hospital","115","10.9101691","106.7816616","Ho Chi Minh"
"Trung tam Dieu duong Nguoi benh Tam Than Thu Duc","hospital","115","10.8671055","106.7463839","Phu Chau, Ho Chi Minh"
"UBND phuong 13, Tan Binh","townhall","112","10.801805","106.6423018","Ho Chi Minh"
"Tram y te Phuoc Binh","hospital","115","10.8158227","106.7731278","Ho Chi Minh"
"Trung tam Y te khu vuc Thuan An","hospital","115","10.9084931","106.7025838","Ho Chi Minh"
"Trung tam Y te huyen Trang Bom","hospital","115","10.9482414","107.0058996","Ho Chi Minh"
"Benh vien Da khoa khu vuc Thu Duc","hospital","115","10.8622334","106.7805429","Ho Chi Minh"
"UBND Thi xa Thuan An","townhall","112","10.9051226","106.6994191","Ho Chi Minh"
"UBND huyen Duc Hoa","townhall","112","10.892992","106.3987085","Ho Chi Minh"
"Uy ban nhan dan phuong Binh Phu","townhall","112","10.7459527","106.6340992","Cho Lon, Ho Chi Minh"
"UBND huyen Can Duoc","townhall","112","10.5074003","106.6020985","Can Duoc, Thi tran Can Duoc"
"Vien Tim Thanh pho Ho Chi Minh","hospital","115","10.7732058","106.666965","Thanh Thai, Ho Chi Minh City"
"Doi PCCC KCX Tan Thuan","fire_station","114","10.7525806","106.7402816","Ho Chi Minh"
"Benh vien Da khoa Tan Phu","hospital","115","10.7835098","106.6419173","Au Co, Ho Chi Minh"
"Benh vien Da khoa Binh Phu","hospital","115","10.7465336","106.6345704","Cho Lon, Binh Phu, Ho Chi Minh"
"UBND Phuong 10","townhall","112","10.738776","106.6319448","Cu xa Phu Lam D, Quan 6, Ho Chi Minh"
"Uy ban nhan dan phuong Cho Lon","townhall","112","10.7526973","106.6611189","Trieu Quang Phuc, Ho Chi Minh"
"Benh vien Ngoc Phu","hospital","115","10.7394843","106.6691079","Ho Chi Minh"
"Benh vien Da khoa Chanh Hung","hospital","115","10.7416982","106.6764696","Cao Lo, Chanh Hung, Ho Chi Minh"
"Cong An Quan 8","police","113","10.7422892","106.6675731","Ho Chi Minh"
"UBND Quan 8","townhall","112","10.7403071","106.6652845","Duong Quang Dong, Quan 8, Ho Chi Minh"
"Trung tam Y te Du phong Quan 8","hospital","115","10.7480741","106.6633623","Ho Chi Minh"
"Phong Canh sat Phong chay Chua chay Thanh pho Ho Chi Minh","fire_station","114","10.7609655","106.6882551","Duong Tran Hung Ðao, Quan 1, Ho Chi Minh"
"Tram y te phuong 9 quan 8","hospital","115","10.745995","106.6701652","Ho Chi Minh City"
"Benh vien Chan thuong Chinh hinh","hospital","+84 8 3923 7007","10.7541795","106.6779595","Duong Tran Hung Ðao, Ho Chi Minh City"
"Benh vien Da khoa Lanh Binh Thang","hospital","115","10.7606826","106.6479151","Duong So 5, Ho Chi Minh City"
"Benh vien Trieu An","hospital","115","10.7391983","106.6171202","Duong Kinh Duong Vuong, Binh Tan, Ho Chi Minh"
"Uy ban nhan dan xa Tan Nhut","townhall","112","10.6899291","106.5841599","Tan Tuc, Ho Chi Minh"
"Cong an huyen Binh Chanh","police","113","10.6884501","106.5828019","Binh Chanh, Ho Chi Minh"
"Benh vien Quan 10","hospital","115","10.7760365","106.6664866","Su Van Hanh, Ho Chi Minh City"
"Benh vien Rang Ham Mat Trung uong Thanh pho Ho Chi Minh","hospital","115","10.7578104","106.6606503","Duong Nguyen Chi Thanh, Ho Chi Minh City"
"Benh vien Dai hoc Y Duoc - Co so 2","hospital","115","10.7579293","106.6612354","Ho Chi Minh"
"Benh vien Cho Ray","hospital","115","10.75695","106.6597328","Duong Nguyen Chi Thanh, Quan 5, Ho Chi Minh"
"Benh vien Phuc hoi chuc nang - Dieu tri benh nghe nghiep","hospital","115","10.7414789","106.6863883","Au Duong Lan, Quan 8, Phuong Rach Ong"
"Cong an Quan 6","police","113","10.7464436","106.6487342","Quan 6, Ho Chi Minh"
"Doi Canh sat giao thong An Lac","police","113","10.7204812","106.5998073","Ho Chi Minh"
"UBND Phuong 7 Quan 8","townhall","112","10.7091224","106.6232666","Pham The Hien, Quan 8, Ho Chi Minh"
"Benh vien Da khoa Binh Chanh","hospital","115","10.6912666","106.5862179","Ho Chi Minh"
"Canh sat PCCC huyen Binh Chanh","fire_station","114","10.6916718","106.5822532","Duong so 8, Binh Chanh, Ho Chi Minh"
"UBND xa An Phu Tay","townhall","112","10.6838726","106.6057679","Ho Chi Minh"
"CI Hospital","hospital","115","10.7403535","106.6077583","Ho Chi Minh"
"Benh vien Quoc te Thanh Do","hospital","115","10.741251","106.6092346","Ho Chi Minh"
"Benh vien Van Phuc 2","hospital","115","10.9793138","106.7398569","Ho Chi Minh"
"Benh vien Nhi dong Thanh pho","hospital","115","10.7101346","106.5746124","Duong Vo Tran Chi, Binh Chanh, Ho Chi Minh"
"Doi Chua chay va Cuu nan cuu ho khu vuc 2","fire_station","114","10.8444825","106.7724324","Ho Chi Minh"
"Benh vien Le Van Thinh","hospital","115","10.7822228","106.7685006","Le Van Thinh, Ho Chi Minh"
"Family Practice","hospital","115","10.807607","106.733795","Ho Chi Minh"
"Benh vien Le Van Viet","hospital","115","10.8449005","106.7902318","Duong Le Van Viet, Ho Chi Minh"
"Cong an P. Tan Thoi Hoa","police","113","10.7649581","106.6324371","Duong Luy Ban Bich, Tan Phu, Ho Chi Minh City"
"Uy ban nhan dan phuong Phu Tho","townhall","112","10.763962","106.6555039","Le Dai Hanh, Ho Chi Minh"
"Benh vien Da khoa Long An","hospital","115","10.5325994","106.4263208","Tan An"
"Benh vien Tam than Tay Ninh","hospital","115","10.5342264","106.4271642","Ho Chi Minh"
"Cong an tinh Long An","police","113","10.5340311","106.4062713","Chau Van Giac, Tan An"
"CS PCCC tinh Long An","fire_station","114","10.5434863","106.3990888","Quoc Lo 62, Tan An"
"Benh vien Da khoa Ben Luc","hospital","115","10.6407508","106.4869234","Ho Chi Minh"
"Uy ban nhan dan xa Binh Hung","townhall","112","10.7265521","106.6547369","Duong so 10, Ho Chi Minh"
"Uy ban nhan dan xa Binh Loi","townhall","112","10.77722","106.5374343","Tran Van Giau, Ho Chi Minh"
"Uy ban nhan dan phuong Trung My Tay","townhall","112","10.8477608","106.6167951","Ho Chi Minh"
"Uy ban nhan dan phuong Hoa Binh","townhall","112","10.7703325","106.6445586","Lac Long Quan, Ho Chi Minh"
"Cong An Phuong Binh Tri Dong","police","113","10.7637116","106.6222212","Binh Tan, Ho Chi Minh City"
"Benh vien huyen Can Giuoc","hospital","115","10.6009661","106.6736887","Can Giuoc, Thi tran Can Giuoc"
"Benh vien Da khoa Thu Thua","hospital","115","10.6054397","106.4065478","Ho Chi Minh"
"Benh vien Da khoa khu vuc Cu Chi","hospital","115","10.9755291","106.4769446","Ho Chi Minh"
"Benh vien Da khoa khu vuc Hoc Mon","hospital","115","10.8826218","106.5929391","Ho Chi Minh"
"Uy ban nhan dan xa Nha Be","townhall","112","10.6745461","106.7328364","Nguyen Binh, Ho Chi Minh"
"UBND huyen Tan Tru","townhall","112","10.5127835","106.5074484","Ho Chi Minh"
"Benh vien Tan Tru","hospital","115","10.5199682","106.516807","Ho Chi Minh"
"Uy ban nhan dan phuong Dong Hung Thuan","townhall","112","10.825865","106.6161231","Ho Chi Minh"
"Uy ban nhan dan phuong Long Binh","townhall","112","10.8427693","106.8237297","Nguyen Van Tang, Ho Chi Minh"
"Benh vien Y duoc co truyen tinh Dong Nai","hospital","115","10.9746482","106.8485973","Ho Chi Minh"
"Benh vien Dai hoc Y duoc Shingmark Dong Nai","hospital","115","10.8968766","106.8632765","Ho Chi Minh"
"Benh vien Da khoa tinh Dong Nai","hospital","0251 8825 609","10.952243","106.8675228","Duong Dong Khoi, Thanh pho Bien Hoa"
"Benh vien Phu san Au Co","hospital","115","10.9629587","106.8867862","Ho Chi Minh"
"Benh vien Nhi dong Dong Nai","hospital","115","10.9560457","106.8744746","Ho Chi Minh"
"Benh vien Da Khoa Van Hanh","hospital","115","10.7713531","106.670117","Ho Chi Minh"
"Doi Canh sat Phong chay, chua chay va Cuu nan, cuu ho - Cong an Thanh pho TDM","fire_station","114","11.060595","106.6808035","Ho Chi Minh"
"Benh vien Ung buou co so 2","hospital","115","10.8702234","106.8093249","Duong So 400, Quan 9, Ho Chi Minh"
"Cong an phuong Binh An","police","113","10.8989487","106.8058652","Ho Chi Minh"
"Cong an Quan 11","police","113","10.7636996","106.6431132","Binh Thoi, Ho Chi Minh"
"Benh vien Da khoa My Phuoc","hospital","115","11.1415843","106.6070629","Ho Chi Minh"
"Uy ban nhan dan phuong Tan Binh","townhall","112","10.7976477","106.6423154","Truong Chinh, Ho Chi Minh"
"Tram cuu hoa phuong 11","fire_station","114","10.7470498","106.6612894","Tung Thien Vuong, Ho Chi Minh"
"UBND phuong 4","townhall","112","10.7529735","106.7029127","Ho Chi Minh"
"Canh sat PCCC Duong song","fire_station","114","10.7528812","106.7006304","Ho Chi Minh"
"Benh vien Phuoc An","hospital","115","10.7532099","106.7000398","Ho Chi Minh"
"PCCC Quan 4","fire_station","114","10.7534536","106.703227","Ho Chi Minh"
"Uy ban nhan dan phuong Vinh Hoi","townhall","112","10.7534287","106.7046332","Ton That Thuyet, Ho Chi Minh"
"UBND phuong 6","townhall","112","10.7602626","106.7000056","Ho Chi Minh"
"UBND phuong 10","townhall","112","10.7613728","106.705479","Vinh Khanh, Quan 4, Ho Chi Minh"
"Dang uy - HDND - UBND phuong 18","townhall","112","10.7589764","106.7140039","Ho Chi Minh"
"Uy ban nhan dan phuong Chanh Hung","townhall","112","10.7369288","106.6662732","Duong Bach Mai, Ho Chi Minh"
"Tram Y Te phuong Binh Hung Hoa","hospital","115","10.7916713","106.6047985","Tan Ky Tan Quy, Binh Tan, Phuong Binh Hung Hoa"
"Benh vien Da khoa Cu Chi","hospital","115","11.08545","106.5092674","Ho Chi Minh"
"Nha Thuoc Tay Quang Hoa","hospital","115","10.7353073","106.6212215","Ho Chi Minh"
"Trung tam Y te khu vuc Hoa Hung","hospital","115","10.7808013","106.675494","Cach Mang Thang 8, Ho Chi Minh"
"HDND - UBND Thi Tran Can Thanh","townhall","112","10.409708","106.9643217","Ho Chi Minh"
"Trung tam Y te khu vuc Can Gio","hospital","115","10.4043915","106.937643","Luong Van Nho, Ho Chi Minh"
"UBND phuong Chanh Hiep","townhall","112","11.0087335","106.6330332","Ho Van Cong, Ho Chi Minh"
"Doi CS PCCC Phu My - Phong CS PCCC Thu Dau Mot Binh Duong","fire_station","114","11.0145611","106.6831508","Ho Chi Minh"
"Uy ban nhan dan phuong Phu Dinh","townhall","112","10.7326349","106.6396391","Luu Huu Phuoc, Ho Chi Minh"
"Cong an huyen Bac Tan Uyen","police","113","11.1159734","106.8429345","Ho Chi Minh"
"Trung tam Y te khu vuc Bac Tan Uyen","hospital","115","11.1497513","106.8453889","Ho Chi Minh"
"UBND thi tran Tan Thanh","townhall","112","11.1502614","106.8442284","Ho Chi Minh"
"UBND xa Long Hoa","townhall","112","10.3977261","106.9113337","Ho Chi Minh"
"Phong Canh Sat PCCC Huyen Can Gio","fire_station","114","10.3993374","106.9093917","Ho Chi Minh"
"Cong an huyen Can Gio","police","113","10.4059217","106.9350747","Ho Chi Minh"
"Uy ban nhan dan xa Thanh An","townhall","112","10.4706665","106.9752954","Ho Chi Minh"
"Uy ban nhan dan xa Binh Chanh","townhall","112","10.6614392","106.5666268","Trinh Nhu Khue, Ho Chi Minh"
"Uy ban nhan dan xa Tan Vinh Loc","townhall","112","10.775119","106.5438017","Tran Van Giau, Ho Chi Minh"
"Uy ban nhan dan xa Hung Long","townhall","112","10.6504429","106.624697","Doan Nguyen Tuan, Ho Chi Minh"
"Uy ban nhan dan xa Binh Khanh","townhall","112","10.6437647","106.7865685","Rung Sac, Ho Chi Minh"
"Uy ban nhan dan xa Xuan Thoi Son","townhall","112","10.8755222","106.5795942","Le Thi Kim, Ho Chi Minh"
"Uy ban nhan dan xa Nhuan Duc","townhall","112","11.0342432","106.4872134","Ba Thien, Ho Chi Minh"
"Uy ban nhan dan xa Thai My","townhall","112","11.005113","106.432266","Phan Van Khai, Ho Chi Minh"
"Uy ban nhan dan xa Binh My","townhall","112","10.9799061","106.6164285","Ho Chi Minh"
"Uy ban nhan dan xa Phu Hoa Dong","townhall","112","10.9843872","106.559329","Tinh lo 8, Ho Chi Minh"
"Uy ban nhan dan xa An Nhon Tay","townhall","112","11.0879674","106.5124445","Tinh lo 7, Ho Chi Minh"
"Uy ban nhan dan xa Vinh Loc","townhall","112","10.8136772","106.5785468","Vinh Loc, Ho Chi Minh"
"Uy ban nhan dan phuong Tam Binh","townhall","112","10.8681251","106.7347353","To Ngoc Van, Ho Chi Minh"
"Uy ban nhan dan phuong Long Phuoc","townhall","112","10.8092436","106.8596817","Long Phuoc, Ho Chi Minh"
"Uy ban nhan dan phuong Phuoc Long","townhall","112","10.826169","106.769175","Do Xuan Hop, Ho Chi Minh"
"Uy ban nhan dan phuong Tang Nhon Phu","townhall","112","10.8458319","106.7872684","Le Van Viet, Ho Chi Minh"
"Doi Canh Sat Trat Tu Giao Thong Q6","police","113","10.7487052","106.6392164","Duong Hau Giang, Quan 6, Ho Chi Minh"
"Uy ban nhan dan phuong Khanh Hoi","townhall","112","10.7642581","106.7009719","Ben Van Don, Ho Chi Minh"
"Uy ban nhan dan phuong Binh Loi Trung","townhall","112","10.8205076","106.702464","Hem 355 No Trang Long, Ho Chi Minh"
"Uy ban nhan dan phuong Cau Ong Lanh","townhall","112","10.7623102","106.6883021","Tran Ðinh Xu, Ho Chi Minh"
"Uy ban nhan dan phuong Phu Lam","townhall","112","10.7587567","106.6262586","Hem 241 Tan Hoa Dong, Ho Chi Minh"
"Uy ban nhan dan phuong Binh Tay","townhall","112","10.7507863","106.6432569","Hem 178/7 Hau Giang, Ho Chi Minh"
"Uy ban nhan dan phuong Minh Phung","townhall","112","10.762317","106.658773","Ly Nam De, Ho Chi Minh"
"Uy ban nhan dan phuong Binh Hung Hoa","townhall","112","10.7941919","106.6102255","Tan Ky Tan Quy, Ho Chi Minh"
"Uy ban nhan dan phuong Binh Tan","townhall","112","10.8131087","106.5937988","Duong so 16, Ho Chi Minh"
"Uy ban nhan dan phuong Phu Thanh","townhall","112","10.7832815","106.6242661","Nguyen Son, Ho Chi Minh"
"Uy ban nhan dan phuong Phu Tho Hoa","townhall","112","10.7923681","106.6333542","Doc Lap, Ho Chi Minh"
"Uy ban nhan dan phuong Tan Son Nhi","townhall","112","10.7967749","106.6194922","Tan Quy, Ho Chi Minh"
"Uy ban nhan dan phuong Tay Thanh","townhall","112","10.8130662","106.6237285","Hem 200 Nguyen Huu Tien, Ho Chi Minh"
"Uy ban nhan dan phuong Binh Trung","townhall","112","10.7891613","106.7720345","Ho Thi Nhung, Ho Chi Minh"
"Cong an Thanh pho Bien Hoa","police","113","10.9552264","106.8241701","Ho Chi Minh"
"Cong an phuong Hoa Binh","police","113","10.9479426","106.8148847","Ho Chi Minh"
"Trung tam Huan luyen va Boi duong Nghiep vu 2","police","113","10.9816645","106.8206149","Ho Chi Minh"
"Cong an 113 Thanh pho Bien Hoa","police","113","10.9560185","106.8646169","Ho Chi Minh"
"Phong Canh sat Co dong tinh Dong Nai","police","113","10.9682538","106.865888","Ho Chi Minh"
"VNVC tinh Dong Nai","hospital","115","10.9468657","106.8579378","Duong Doan Van Cu, Thanh pho Bien Hoa"
"Benh vien Phoi tinh Dong Nai","hospital","115","10.8754047","106.9189913","Ho Chi Minh"
"Benh vien Da lieu tinh Dong Nai","hospital","115","11.0003405","106.8532809","Duong Dong Khoi, Thanh pho Bien Hoa"
"Trung tam Y te huyen Vinh Cuu - co so 2","hospital","115","11.0136219","106.8483429","Ho Chi Minh"
"Cong an phuong Trang Dai","police","113","10.9806904","106.8561064","Ho Chi Minh"
"Benh vien Da khoa Tam Hong Phuoc","hospital","115","10.9701527","106.8665707","Ho Chi Minh"
"Cong an phuong Quyet Thang","police","113","10.9432713","106.8238063","Ho Chi Minh"
"Trung tam Cham soc Suc khoe sinh san tinh Dong Nai","hospital","115","10.9487049","106.8176297","Ho Chi Minh"
"Trung tam Y te khu vuc Tan Uyen","hospital","115","11.0856347","106.7808929","Ho Chi Minh"
"Trung tam Y te thanh pho Tan An","hospital","115","10.5383985","106.4158639","Ho Chi Minh"
"Benh vien Phoi Long An","hospital","115","10.518564","106.412216","Ho Chi Minh"
"Benh vien San nhi TWG Long An","hospital","115","10.519945","106.4202166","Ho Chi Minh"
"Benh vien Da khoa khu vuc Hau Nghia","hospital","115","10.8792828","106.3941248","Ho Chi Minh"
"Uy ban nhan dan phuong Cau Kieu","townhall","112","10.7987845","106.6817121","Doan Thi Diem, Ho Chi Minh"
"Uy ban nhan dan phuong Duc Nhuan","townhall","112","10.8094758","106.6787785","Nguyen Kiem, Ho Chi Minh"
"Uy ban nhan dan phuong Ben Thanh","townhall","112","10.7702229","106.6912783","Nguyen Trai, Ho Chi Minh"
"Uy ban nhan dan phuong Nhieu Loc","townhall","112","10.7817298","106.6822783","Ba Huyen Thanh Quan, Ho Chi Minh"
"Uy ban nhan dan phuong Ban Co","townhall","112","10.770091","106.6776849","Nguyen Thien Thuat, Ho Chi Minh"
"Trung tam Y te huyen Go Cong Dong (co so 2)","hospital","115","10.3984443","106.7185209","Ho Chi Minh"
"Trung tam Y te huyen Chau Thanh","hospital","115","10.4466593","106.3416684","Ho Chi Minh"
"Tram y te xa Ho Nai 3","hospital","115","10.9655886","106.920561","Ho Chi Minh"
"Benh vien Truyen mau - Huyet hoc (co so 2)","hospital","115","10.7093154","106.5760857","Tran Huu Nghiep, Ho Chi Minh"
"Cong an phuong Tan Bien","police","113","10.9791092","106.8946384","Ho Chi Minh"
"Cong an phuong Tam Hoa","police","113","10.940359","106.8662704","Ho Chi Minh"
"Cong an phuong Tan Hanh","police","113","10.9497446","106.7777546","Ho Chi Minh"
"Cong an phuong Buu Long","police","113","10.957962","106.791466","Ho Chi Minh"
"Cong an phuong Hoa An","police","113","10.9362109","106.8039661","Ho Chi Minh"
"Cong an phuong Hiep Hoa","police","113","10.9325009","106.8254525","Ho Chi Minh"
"Cong an phuong Binh Da","police","113","10.9337788","106.8624629","Ho Chi Minh"
"Benh vien Da khoa Thong Nhat","hospital","115","10.9671203","106.900249","Ho Chi Minh"
"BENH VIEN DA KHOA TAM TRI SAI GON","hospital","115","10.8316195","106.6215219","Ho Chi Minh"
"Uy ban nhan dan xa Cu Chi","townhall","112","10.9402975","106.5399113","Ho Chi Minh"
"Tieu doan Canh sat Co dong Dong Nam Bo 1","police","113","10.8791559","106.926548","Ho Chi Minh"
"Don Cong an Khu cong nghiep Bien Hoa","police","113","10.9353975","106.8712251","Ho Chi Minh"
"Cong an phuong Tan Van","police","113","10.9128464","106.827753","Ho Chi Minh"
"Cong an phuong Trung Dung","police","113","10.9548074","106.8254213","Duong 30 Thang 4, Thanh pho Bien Hoa"
"Benh vien Da khoa Hoan Hao Kei Mei Kai","hospital","115","10.8698098","106.7627408","Ho Chi Minh"
"Doi PCCC & CNCH KV3","fire_station","114","10.8657017","106.7560574","Ho Chi Minh"
"Cong an phuong Tan Hoa","police","113","10.9670843","106.9117978","Ho Chi Minh"
"UBND phuong An Binh","townhall","112","10.8716321","106.7573956","Ho Chi Minh"
"Cong an phuong Buu Hoa","police","113","10.9308375","106.8206266","Ho Chi Minh"
"Cong an phuong Ho Nai","police","113","10.9720868","106.8779154","Ho Chi Minh"
"Cong an phuong Long Binh Tan","police","113","10.9003985","106.8548784","Ho Chi Minh"
"Cong an phuong An Hoa","police","113","10.893347","106.8637776","Ho Chi Minh"
"Cong an phuong Phuoc Tan","police","113","10.89162","106.9060124","Ho Chi Minh"
"Benh vien Dieu duong - Phuc hoi Chuc nang 2","hospital","115","10.8948585","106.8711538","Ho Chi Minh"
"Cong an phuong Thanh Binh","police","113","10.9470687","106.8171473","Ho Chi Minh"
"Cong an phuong An Binh","police","113","10.9063777","106.8478812","Ho Chi Minh"
"Kho so 1 Cong an Thanh pho Bien Hoa","police","113","10.9460332","106.8680584","Ho Chi Minh"
"Uy ban nhan dan xa Hiep Phuoc","townhall","112","10.6562603","106.7289294","Nguyen Van Tao, Ho Chi Minh"
"Cong an huyen Duc Hoa","police","113","10.892218","106.3941425","Duc Hoa, Ho Chi Minh"
"Canh sat PCCC","fire_station","114","10.8917174","106.3943958","Duc Hoa, Ho Chi Minh"
"Uy ban nhan dan phuong Hanh Thong","townhall","112","10.8265664","106.6834535","Nguyen Van Nghi, Ho Chi Minh"
"Uy ban nhan dan phuong Hoa Hung","townhall","112","10.7806872","106.6642283","Tam Dao, Ho Chi Minh"
"Hoi dong nhan dan - Uy ban nhan dan phuong Gia Dinh","townhall","112","10.8062047","106.6906386","Hoang Hoa Tham, Ho Chi Minh"
"Uy ban nhan dan phuong Vuon Lai","townhall","112","10.7613478","106.6746674","Hung Vuong, Ho Chi Minh"
"Uy ban nhan dan xa Dong Thanh","townhall","112","10.904493","106.6358211","Dang Thuc Vinh, Ho Chi Minh"
"Cong an phuong Quang Vinh","police","113","10.9500316","106.8168995","Ho Chi Minh"
"Tram y te xa Thien Tan","hospital","115","11.0242697","106.8973945","Ho Chi Minh"
"Cong an xa Tan An","police","113","11.0357006","106.9154561","Ho Chi Minh"
"Tram y te xa Tan An","hospital","115","11.0401496","106.9145824","Ho Chi Minh"
"Tram y te xa Tan Binh","hospital","115","10.9992892","106.8078974","Duong tinh 768, Huyen Vinh Cuu, Ho Chi Minh"
"Cong an xa Binh Hoa","police","113","10.9817039","106.7988191","Ho Chi Minh"
"Tram y te xa Binh Hoa","hospital","115","10.9814715","106.7988443","Ho Chi Minh"
"Cong an xa Tan Binh","police","113","10.9962214","106.8048858","Ho Chi Minh"
"Phong Canh sat Phong chay Chua chay tinh Dong Nai","fire_station","0251 3899 909","10.9684768","106.8579261","Duong Nguyen Ai Quoc, Thanh pho Bien Hoa"
"Uy ban nhan dan xa Ba Diem","townhall","112","10.8400518","106.5989647","Phan Van Hon, Ho Chi Minh"
"Benh vien Quan y 7A","hospital","115","10.7557703","106.6707327","Ho Chi Minh"
"Benh vien Tai Mui Hong Thanh pho Ho Chi Minh","hospital","115","10.7843261","106.683944","Duong Tran Quoc Thao, Ho Chi Minh"
"Benh vien Tu Du (khu M)","hospital","115","10.7678651","106.6847646","Cong Quynh, Ho Chi Minh"
"Benh vien Y hoc co truyen Thanh pho Ho Chi Minh","hospital","115","10.7855497","106.6878673","Duong Nam Ky Khoi Nghia, Ho Chi Minh"
"Trung tam Y te khu vuc Nhieu Loc","hospital","115","10.7848359","106.683949","Tran Quoc Thao, Ho Chi Minh"
"Trung tam Y te khu vuc Cho Lon","hospital","115","10.7541274","106.6657826","Nguyen Trai, Ho Chi Minh"
"Benh vien Da khoa Nha Be","hospital","115","10.7042622","106.7052895","Ho Chi Minh"
"Benh vien Da chien Binh Chanh","hospital","115","10.7200864","106.6598189","Ho Chi Minh"
"Tram y te Xa Phu Huu","hospital","115","10.7465975","106.7948014","Ho Chi Minh"
"Tram y te xa Hieu Liem","hospital","115","11.11593","106.9684801","Ho Chi Minh"
"Cong an xa Hieu Liem","police","113","11.1137833","106.9661397","Ho Chi Minh"
"Benh vien Quan y 4","hospital","115","10.8895125","106.741575","Ho Chi Minh"
"Benh Vien Da Khoa Quoc Te Nam Sai Gon","hospital","+84 1800 6767","10.7361021","106.6908392","Duong So 8, Binh Chanh, Ho Chi Minh City"
"Uy ban nhan dan phuong Tan Hung","townhall","112","10.7440007","106.7006631","Duong 2A, Ho Chi Minh"
"Phong Canh sat PCCC Quan 7","fire_station","114","10.7278806","106.7027671","Ho Chi Minh"
"Cong an huyen Can Giuoc","police","113","10.6031298","106.6654328","Can Giuoc, Thi tran Can Giuoc"
"UBND Xa Ly Nhon","townhall","112","10.4721664","106.7711232","Ho Chi Minh"
"Cong an Khu cong nghiep Tam Phuoc","police","113","10.8596946","106.9355705","Ho Chi Minh"
"Doi Canh khuyen Dong Nai","police","113","10.8522009","106.9296037","Ho Chi Minh"
"Tram Kiem soat Giao thong Nga ba Thai Lan","police","113","10.8519705","106.9281562","Ho Chi Minh"
"Uy ban nhan dan xa An Thoi Dong","townhall","112","10.590347","106.7893512","Ho Chi Minh"
"HDND-UBND Xa Thanh Phu","townhall","112","10.666357","106.5107594","Ho Chi Minh"
"HDND-UBND Xa An Thanh","townhall","112","10.6525415","106.4706027","Ho Chi Minh"
"HDND-UBND Xa Nhi Thanh","townhall","112","10.605989","106.4253255","Ho Chi Minh"
"HDND-UBND Xa Tan Hoi Dong","townhall","112","10.5042857","106.3444423","Ho Chi Minh"
"Bai giu xe Vi pham Trat tu An toan Giao thong Tinh Binh Duong","police","113","11.0152369","106.673603","Ho Chi Minh"
"Co quan Canh sat Dieu tra Thanh pho Thu Dau Mot","police","113","11.0160198","106.6732772","Ho Chi Minh"
"Benh vien Quoc te Vinmec","hospital","115","10.8360871","106.8456243","Ho Chi Minh"
"Benh vien Tam than - Co so Le Minh Xuan","hospital","115","10.7693286","106.5458486","Binh Chanh, Xa Le Minh Xuan"
"Cuc Dieu tra Hinh su phia Nam","police","113","10.806156","106.6610778","Thang Long, Tan Binh, Thanh pho Ho Chi Minh"
"Doi Canh sat PCCC & CNCH Tan Binh","fire_station","114","10.7935686","106.6392843","Au Co, Tan Binh, Thanh pho Ho Chi Minh"
"Don Cong an khu cong nghiep Song Than","police","113","10.8953244","106.7544894","Ho Chi Minh"
"Cong an quan Tan Phu","police","113","10.7903504","106.6394928","Ho Chi Minh"
"Cong an phuong Phu Trung, quan Tan Phu","police","113","10.7803763","106.6419378","Ho Chi Minh"
"Doi PCCC & CNCH quan Tan Phu","fire_station","114","10.8095227","106.6175397","Ho Chi Minh"
"Benh vien Quoc te My AIH","hospital","115","10.79377","106.7468051","Nguyen Hoang, Thanh pho Thu Duc, Thanh pho Ho Chi Minh"
"Doi PCCC & CHCN quan 11","fire_station","114","10.7706964","106.6577968","Ho Chi Minh"
"Tram Y te phuong Binh Trung Dong","hospital","115","10.7896008","106.7720079","Ho Chi Minh"
"Doi CC & CNCH Khu Vuc 2 PC07","fire_station","114","10.8447702","106.806421","Ho Chi Minh"
"Cong An phuong Phu My","police","113","10.7018946","106.7316876","Duong 15B, Quan 7, Ho Chi Minh"
"Uy ban nhan dan phuong An Nhon","townhall","112","10.8391072","106.6815094","Nguyen Van Luong, Ho Chi Minh"
"Uy ban nhan dan phuong Binh Dong","townhall","112","10.7305553","106.6446693","Ta Quang Buu, Ho Chi Minh"
"Cong an Quan 3","police","113","10.7769439","106.6825618","Ho Chi Minh"
"Benh vien Quan Dan y Mien Dong","hospital","115","10.8448592","106.7777477","Duong Le Van Viet, Ho Chi Minh"
"Cong an Quan 10","police","113","10.7717623","106.6644476","Ho Chi Minh"
"Uy ban nhan dan phuong Cat Lai","townhall","112","10.7743991","106.770305","Nguyen Thi Dinh, Ho Chi Minh"
"Uy ban nhan dan phuong An Hoi Tay","townhall","112","10.8421803","106.638137","Phan Huy Ich, Ho Chi Minh"
"Cong an phuong 14","police","113","10.842012","106.6383202","Duong Phan Huy Ich, Go Vap, Phuong 14"
"Cong an phuong An Phu Dong","police","02837195681","10.8545421","106.6912171","An Phu Dong 3, Phuong An Phu Dong"
"Cong an phuong 4","police","113","10.742401","106.6715288","Dao Cam Moc, Quan 8, Phuong 4"
"Uy ban nhan dan phuong Hiep Binh","townhall","112","10.860168","106.7236342","Quoc lo 13, Ho Chi Minh"
"UBND xa Long Hung","townhall","112","10.3836777","106.6809753","Ho Chi Minh"
"Benh Vien Da Khoa Xuyen A","hospital","115","10.9283804","106.5581117","Ho Chi Minh"
"Uy ban nhan dan phuong Thu Duc","townhall","112","10.8476602","106.7715014","Nguyen Cong Tru, Ho Chi Minh"
"Doi Canh sat giao thong An Suong","police","113","10.8564265","106.608896","Nguyen Anh Thu, Ho Chi Minh"
"Benh vien Ben San","hospital","115","11.0454588","106.7449853","Ho Chi Minh"
"Benh vien Mat Ha Noi - Dong Nai","hospital","115","10.9436687","106.8590203","Duong Pham Van Thuan, Thanh pho Bien Hoa"
"Uy ban nhan dan phuong An Khanh","townhall","112","10.7884669","106.7338681","Ho Chi Minh"
"Cong an Xa Thanh Phu","police","113","11.0105552","106.8318043","Ho Chi Minh"
"Uy ban nhan dan phuong Tan Hoa","townhall","112","10.78183","106.6571942","Bac Hai, Ho Chi Minh"
"Uy ban nhan dan phuong Tan Son","townhall","112","10.8184669","106.631855","Truong Chinh, Ho Chi Minh"
"UBND Phuong An Phu Dong","townhall","112","10.8777644","106.6787269","Ha Huy Giap, Ho Chi Minh"
"Cong an phuong Tan Son Nhi","police","113","10.8030772","106.6222241","Tan Thang, Ho Chi Minh"
"Doi Chua chay va Cuu nan cuu ho khu vuc 32","fire_station","114","11.0536143","106.7550718","Ho Chi Minh"
"UBND Huyen Nhon Trach","townhall","112","10.722968","106.8833362","Nguyen Huu Canh, Ho Chi Minh"
"Benh vien Nguyen Tri Phuong","hospital","115","10.7551268","106.670238","Ho Chi Minh"
"Benh vien Nhan dan 115","hospital","115","10.7745844","106.6665349","Su Van Hanh, Ho Chi Minh City"
"SCH e218","police","113","20.9994067","105.7274347","Ha Noi"
"Tram y te Van Mon","hospital","115","21.1676281","105.9301084","Ha Noi"
"UBND xa Nghia Tru","townhall","112","20.9423189","105.9575045","Ha Noi"
"Benh Vien Da Khoa Thang Long","hospital","+84 4 3687 3058","20.9542742","105.8384237","Tuu Liet, Tam Hiep, Thanh Tri, Ha Noi"
"Paris Miki Vietnam","hospital","115","21.0492003","105.8400348","Pho Duc Chinh, Quan Ba Dinh, Hanoi"
"Tram y te Xa Binh Duong","hospital","115","21.2461978","105.5182179","Vinh Tuong, Ha Noi"
"Benh vien Mat Thai Nguyen","hospital","115","21.6015817","105.8240667","Ha Noi"
"UBND phuong Xuan Tao","townhall","112","21.0716053","105.7977363","Xuan Dinh, Ha Noi"
"benh vien quan y 108","hospital","115","20.6739919","105.3161392","Ha Noi"
"Tram y te xa Xuan Canh","hospital","115","21.0933795","105.8521434","Dong Anh, Ha Noi"
"Trung tam y te du phong quan Ha Dong","hospital","115","20.9677609","105.7789877","To Hieu, Ha Dong, Ha Noi"
"Cong an thanh pho Hoa Binh","police","113","20.8373454","105.3420407","Ha Noi"
"Tram Y te xa Nghia Huong","hospital","115","20.9727604","105.6144225","Ha Noi"
"Benh vien da khoa Yen Binh","hospital","115","21.4050891","105.8743812","Tran Nguyen Han, Pho Yen, Pho Yen"
"Uy ban nhan dan thanh pho Pho Yen","townhall","112","21.4155472","105.8728167","Pho Yen, Pho Yen"
"Trung tam hoi nghi tinh Vinh Phuc","townhall","112","21.3090465","105.6047809","Ha Noi"
"Tram Y te Phung Chau","hospital","115","20.9471543","105.7078282","Phuong Nghia, Chuong My, Ha Noi"
"Cong an phuong Dong Ngan","police","113","21.120719","105.9647635","Duong Minh Khai, Thanh pho Tu Son, Bac Ninh"
"Trung tam Cham soc Suc khoe Nguoi cao tuoi Hoa Sen - Lotus Care","hospital","115","21.039913","105.7472566","Pho Trinh Van Bo, quan Nam Tu Liem, Ha Noi"
"Nha Khoa","hospital","115","21.0651797","105.7628554","Ha Noi"
"Trung tam tiem ᴄhung Fivevac","hospital","115","20.9301069","105.8481456","Duong Ngoc Hoi, Km 13 D. Ngoc Hoi, Ngoc Hoi, Thanh Tri, Ha Noi 100000, Vietnam, Hanoi"
"Cong an phuong Thinh Liet","police","113","20.9705156","105.8468519","Ha Noi"
"Benh vien Y Te Phuc Thai","hospital","115","21.4535845","105.862155","Ha Noi"
"Tru so Uy ban nhan dan Thanh pho Song Cong","townhall","112","21.4654765","105.8443371","Song Cong"
"UBND Thanh pho Thai Nguyen","townhall","112","21.5943677","105.8413594","Ha Noi"
"Benh Vien Da Khoa Quoc Te Bac Ha","hospital","115","21.0431119","105.8711851","Ha Noi"
"Tram Y Te Phuong KIen Hung","hospital","115","20.960142","105.7884888","Ha Noi"
"Tram Y Te Xa Kim An","hospital","115","20.8487843","105.7573208","Ha Noi"
"Uy Ban Nhan Dan Huyen Thuong Tin","townhall","112","20.8688042","105.8615735","Ha Noi"
"Trung tam Nghien cuu va Ung dung Y hoc co truyen CTA","hospital","115","21.0511017","105.790782","Ngo 208 Tran Cung, Quan Bac Tu Liem, Ha Noi"
"Benh vien Tue Tinh","hospital","115","20.984612","105.7928536","Ha Noi"
"Nha van hoa thon Van Con","townhall","112","20.9890055","105.6774082","Ha Noi"
"Uy ban nhan dan xa Van Con","townhall","112","20.9907605","105.6786618","Ha Noi"
"Uy ban nhan dan xa Nghiem Xuyen","townhall","112","20.8041009","105.8564068","Ha Noi"
"Nha thuoc dong y Bui Toc","hospital","115","20.924333","105.8908793","Duyen Ha, Thanh Tri"
"Duck's Hospital","hospital","115","21.0662593","105.7819381","Ha Noi"
"Tram Xa Co Nhue","hospital","115","21.0576234","105.7836205","Duong Tran Cung, Ha Noi"
"UBND xa Tri Trung","townhall","112","20.7787026","105.8295488","Ha Noi"
"Cong an phuong Vinh Phuc","police","113","21.0423014","105.8087405","Ha Noi"
"Tram y te phuong Tay Mo (Co so 2)","hospital","115","21.0018973","105.7512096","Ngo 27 Duong Tay Mo, Ha Noi"
"Cong an phuong Ngoc Lam","police","113","21.0455068","105.8691113","Pho Ngoc Lam, Long Bien, Ha Noi"
"Cong an phuong Phu Luong","police","113","20.9380573","105.7697165","Ha Noi"
"Cong an xa Bac Son","police","113","21.3623786","105.8184018","Ha Noi"
"Cong an xa Mai Dinh","police","113","21.2244696","105.8318013","Ha Noi"
"Benh vien Huu nghi Quoc te Ha Noi","hospital","115","21.0040429","105.7496348","Tay Mo, phuong Tay Mo, quan Nam Tu Liem, Ha Noi, Quan Nam Tu Liem, Phuong Tay Mo"
"Benh vien Da khoa Hoe Nhai - Co so 2","hospital","115","21.0471714","105.8458691","Ngo 53 Tan Ap, Ha Noi"
"UBND","townhall","112","21.0781532","105.6201113","Ha Noi"
"Tram y te Phuong Van Phuc","hospital","115","20.9789324","105.7751087","Ha Noi"
"Benh vien chuyen khoa Nam hoc va Hiem muon Viet - Bi","hospital","115","20.9868669","105.8399598","Pho Nguyen Van Troi, quan Thanh Xuan, thanh pho Ha Noi, Ha Noi"
"Cong an xa Lai Yen","police","113","21.0268975","105.7091561","Ha Noi"
"Cong an xa Yen My","police","113","20.9465177","105.8701503","Ha Noi"
"Benh vien Det May","hospital","115","20.9965075","105.8651351","Ngo 454 Minh Khai, Ha Noi"
"Dang uy - HDND - UBND phuong Xuan Dinh","townhall","112","21.0636667","105.8010516","Pho Minh Tao, Ha Noi"
"Tram y te phuong Tay Mo (Co so 1)","hospital","115","20.9954672","105.7560256","Duong Dai Mo, Ha Noi"
"Uy Ban xa Nghia Tru","townhall","112","20.939047","106.0023032","Duong To Hieu, Ha Noi"
"Cong an phuong Hai Ba Trung","police","113","21.0098192","105.8457618","Pho Nguyen Dinh Chieu, Ha Noi"
"Tru so Cong An Nghia Tru","police","113","20.9549522","105.9861698","Ha Noi"
"Benh Vien Da Khoa Quoc te Phuc Lam","hospital","115","20.9429462","105.9478414","Ha Noi"
"Cong an phuong Vinh Tuy","police","113","21.0048512","105.8653632","Ha Noi"
"Doi Chua chay va Cuu nan cuu ho khu vuc so 33","fire_station","114","20.8641215","105.7599199","Ha Noi"
"Benh vien Phu san Ha Noi","hospital","115","21.0268213","105.8074644","Ngo 933 De La Thanh, Dong Da, Ha Noi"
"Benh vien Nhi Trung uong","hospital","115","21.0249118","105.8083673","Ngo 879 La Thanh, Dong Da, Ha Noi"
"Trung tam Y te Van Giang","hospital","115","20.9510699","105.9441322","Ha Noi"
"Huyen uy - HDND - UBND huyen Van Giang","townhall","112","20.9501951","105.9438641","Ha Noi"
"Uy ban nhan dan xa Bat Trang","townhall","112","20.9865087","105.9331673","Ha Noi"
"Benh vien Song Hong","hospital","115","20.9832401","105.9231751","Ha Noi"
"Tram y te Xa Tien Phong","hospital","115","21.1539788","105.7603327","Ha Noi"
"Benh vien 74 Trung uong","hospital","115","21.2213449","105.7095199","Ha Noi"
"Cong an phuong Co Nhue 2","police","113","21.0671281","105.7823099","Ha Noi"
"Benh vien Da khoa Vinh Phuc","hospital","115","21.3186435","105.5999464","Ha Noi"
"Benh vien Da khoa Gia Lam","hospital","115","21.0093543","105.9439877","Gia Lam, Ha Noi"
"UBND phuong Van Phuc","townhall","112","20.9799246","105.7749142","Ha Noi"
"Cong An Phuong Xuan Phuong","police","113","21.0351096","105.7396888","Ha Noi"
"Benh vien Da khoa tinh Phu Tho","hospital","115","21.3248677","105.3934443","Ha Noi"
"Benh vien Da khoa Phuong Dong","hospital","115","21.0699424","105.7750912","Pho Vien, Ha Noi"
"Benh vien Giao thong Van tai","hospital","+84 91 123 32 09","21.0261377","105.8025875","Pho Huynh Thuc Khang, Ha Noi"
"Benh vien song Hong","hospital","115","20.9825824","105.9217564","Ha Noi"
"Cong an phuong Dinh Bang","police","113","21.1085559","105.9514388","Pho Nguyen Van Troi, Thanh pho Tu Son, Bac Ninh"
"UBND phuong Dinh Bang","townhall","112","21.1116606","105.9507407","Pho Nguyen Van Troi, Thanh pho Tu Son, Bac Ninh"
"Trung tam Y te phuong Dinh Bang","hospital","115","21.1123583","105.953696","Pho Van Hanh, Thanh pho Tu Son, Bac Ninh"
"Trung tam Y te thanh pho Tu Son","hospital","115","21.1239128","105.9722042","Duong Minh Khai, Thanh pho Tu Son, Bac Ninh"
"Cong an Phuong Dinh Bang","police","113","21.1095106","105.9463059","Ha Noi"
"UBND phuong Dong Ngan","townhall","112","21.120957","105.9645849","Duong Minh Khai, Thanh pho Tu Son, Bac Ninh"
"Trung tam Y te khu vuc Vinh Tuong","hospital","115","21.2198741","105.5188216","Ha Noi"
"UBND thi tran Cho","townhall","112","21.1967296","105.9521833","Duong Huynh Thuc Khang, Huyen Yen Phong, Bac Ninh"
"Cong an tinh Hoa Binh","police","113","20.8141912","105.3450024","Ha Noi"
"Hoi dong nhan dan - Uy ban nhan dan phuong Hoa Binh","townhall","112","20.8285258","105.3447065","Ha Noi"
"District Hospital","hospital","115","20.945738","105.6170104","Ha Noi"
"Doi Chua chay va Cuu nan cuu ho khu vuc so 23","fire_station","114","21.0684256","105.7070224","Ha Noi"
"Cong an huyen Hoai Duc","police","113","21.069333","105.7098352","Ha Noi"
"UBND xa Son Dong","townhall","112","21.0429796","105.6993077","Ha Noi"
"Tram Y te phuong Phu Khe","hospital","115","21.1414976","105.9352137","Duong Nguyen Van Cu, Thanh pho Tu Son, Bac Ninh"
"Cong an thanh pho Tu Son","police","113","21.1124986","105.9589494","Duong Ly Thai To, Thanh pho Tu Son, Bac Ninh"
"Cong an phuong Yen So","police","113","20.9680454","105.8712207","Ha Noi"
"UBND phuong Tuong Giang","townhall","112","21.1349898","105.9889349","Duong Tuong Giang, Thanh pho Tu Son, Bac Ninh"
"Uy ban nhan dan xa Phu Dong","townhall","112","21.0744564","105.9263182","Ha Noi"
"UBND xa Yen Vien","townhall","112","21.0962008","105.9162595","Ha Noi"
"Dang uy - HDND - UBND Thi tran Yen Vien","townhall","112","21.0900145","105.9229769","Ha Noi"
"Cong An Xa Yen Thuong","police","113","21.0978761","105.9167728","Ha Noi"
"Dang uy - HDND - UBND xa Yen Thuong","townhall","112","21.0982809","105.9163772","Ha Noi"
"UBND xa Dai Dong","townhall","112","21.0892194","105.9903049","Ha Noi"
"UBND phuong Dong Nguyen","townhall","112","21.1248082","105.9732051","Duong Minh Khai, Thanh pho Tu Son, Bac Ninh"
"Nha Van Hoa khu pho Yen La","townhall","112","21.1165005","105.9727773","Ha Noi"
"Nha Van Hoa khu pho Xuan Thu","townhall","112","21.1204611","105.9700228","Duong Le Quang Dao, Thanh pho Tu Son, Bac Ninh"
"Uy ban nhan dan phuong Dong Ngac","townhall","112","21.0782412","105.7772068","Pho Van Hoi, Ha Noi"
"Cong an phuong Hang Buom","police","113","21.0359961","105.8513163","Pho Hang Buom, Ha Noi"
"HDND phuong Hoan Kiem","townhall","112","21.0285079","105.8506344","Pho Hang Trong, Ha Noi"
"Dang uy - HDND phuong Cua Nam","townhall","112","21.0242015","105.8515154","Pho Ba Trieu, Ha Noi"
"Benh vien Phu san Trung uong","hospital","115","21.0266842","105.8469248","Pho Trang Thi, Hoan Kiem, Ha Noi"
"Benh vien K","hospital","115","21.0268963","105.8461355","Pho Quan Su, Hoan Kiem, Ha Noi"
"Benh vien Huu nghi Viet Duc","hospital","115","21.0285801","105.8470046","Pho Phu Doan, Ha Noi"
"Benh vien Rang Ham Mat Trung uong Ha Noi","hospital","115","21.0277635","105.8464388","Pho Trang Thi, Hoan Kiem, Ha Noi"
"Cong an phuong Trang Tien","police","113","21.0250474","105.8573382","Ha Noi"
"Dang uy - UBND phuong Trang Tien","townhall","112","21.0252563","105.8575687","Pho Co Tan, Hoan Kiem, Ha Noi"
"Cong an Thanh pho Ha Noi","police","113","21.0220784","105.846242","Pho Tran Hung Dao, Ha Noi"
"Phong An ninh mang va phong, chong toi pham su dung cong nghe cao","police","113","21.0236387","105.8486061","Pho Ly Thuong Kiet, Ha Noi"
"Benh vien Mat Ha Noi (Tru so chinh)","hospital","115","21.024085","105.8503409","Pho Hai Ba Trung, Ha Noi"
"Cong an phuong Bo De","police","113","21.0385032","105.8725257","Ha Noi"
"Dang uy - UBND phuong Mo Lao","townhall","112","20.9853666","105.783635","Ha Noi"
"UBND xa Dong Tam","townhall","112","20.8009257","105.6764256","Ha Noi"
"Dang uy - HDND - UBND xa Thuong Lam","townhall","112","20.7946982","105.6757801","Ha Noi"
"Dang uy - HDND - UBND xa An My","townhall","112","20.7527183","105.6981385","Ha Noi"
"UBND Xa My Thanh","townhall","112","20.7799348","105.7031616","Ha Noi"
"Dang uy - HDND - UBND xa Dong Lac","townhall","112","20.8229142","105.6814122","Ha Noi"
"UBND xa Phuc Lam","townhall","112","20.8100942","105.705063","Ha Noi"
"UBND xa Tran Phu","townhall","112","20.8330622","105.6706516","Ha Noi"
"UBND xa Bot Xuyen","townhall","112","20.7816753","105.7160893","Ha Noi"
"UBND xa Hong Son","townhall","112","20.727683","105.7085885","Ha Noi"
"UBND xa Xuy Xa","townhall","112","20.7182396","105.7334696","Ha Noi"
"UBND xa Phung Xa","townhall","112","20.7218191","105.7618767","Ha Noi"
"UBND xa Huong Son","townhall","112","20.6142323","105.7869843","Ha Noi"
"UBND thi tran Dai Nghia","townhall","112","20.6863133","105.741014","Ha Noi"
"Uy ban nhan dan huyen My Duc","townhall","112","20.6866777","105.7447343","Ha Noi"
"UBND xa An Tien","townhall","112","20.6583309","105.7364173","Ha Noi"
"UBND thanh pho Vinh Yen","townhall","112","21.3100166","105.5906664","Ha Noi"
"UBND xa Son Nam","townhall","112","21.5524317","105.4628514","Ha Noi"
"Benh vien Da khoa Trung uong Thai Nguyen","hospital","115","21.5880078","105.8310818","Duong Luong Ngoc Quyen, Thai Nguyen"
"Benh vien Huu Nghi","hospital","115","21.0154534","105.8617595","Duong Tran Khanh Du, Hai Ba Trung, Ha Noi"
"Dang uy - HDND - UBND phuong Bach Mai","townhall","112","21.0079907","105.848687","Duong Dai Co Viet, Ha Noi"
"UBND phuong Bach Khoa","townhall","112","21.0018712","105.8466185","Pho Le Thanh Nghi, Hai Ba Trung, Ha Noi"
"Benh vien Mat Trung uong","hospital","115","21.0176301","105.8495995","Pho Ba Trieu, Hai Ba Trung, Ha Noi"
"Van phong Co quan Canh sat dieu tra","police","113","21.0262138","105.851374","Pho Trang Thi, Hoan Kiem, Ha Noi"
"HDND - UBND huyen Chuong My","townhall","112","20.923206","105.7020695","Ha Noi"
"Benh vien Y hoc co truyen Bo Cong an","hospital","115","20.9961682","105.7892377","Duong Luong The Vinh, Nam Tu Liem, Ha Noi"
"Vien Y hoc co truyen Quan doi","hospital","115","20.9727944","105.8233726","Duong Kim Giang, Hoang Mai, Ha Noi"
"UBND xa Dong Truc","townhall","112","20.9935387","105.5695776","Ha Noi"
"Benh vien Dong Do","hospital","+84 1900 1965","21.0093319","105.8379891","Pho Xa Dan, Dong Da, Ha Noi"
"Uy ban nhan dan phuong Kim Lien","townhall","112","21.0093891","105.8318913","Ngo 4B Dang Van Ngu, Ha Noi"
"Phong Canh sat dieu tra toi pham ve tham nhung, kinh te, buon lau, moi truong","police","113","21.0196295","105.831008","Pho Kham Thien, Ha Noi"
